"business_name","telephone","street","locality","region","zipcode","website","business_page","search_category","updated_at"
"Bartman Plumbing Ltd","647-846-8278","16-56 Pennsylvania Ave","Concord","ON","L4K 3V9","https://www.yellowpages.ca/gourl/3e0854157bdfc605fd23fdd955748e12e412b1ea?redirect=https%3A%2F%2Fwww.bartmanplumbing.com%2F","https://www.yellowpages.ca/bus/Ontario/Concord/Bartman-Plumbing-Ltd/102421730.html?what=plumbing&where=Toronto+ON&useContext=true","plumbing","2022-04-05 16:20:23.551404"
"JMS Plumbing & Drains","647-846-8116","","","","","","https://www.yellowpages.ca/bus/Ontario/JMS-Plumbing-Drains/102753075.html?what=plumbing&where=Toronto+ON&useContext=true","plumbing","2022-04-05 16:20:23.551623"
"New Water Plumbing","647-559-9278
1-844-219-9974","34 Doncaster Ave","Thornhill","ON","L3T 4S1","https://www.yellowpages.ca/gourl/7a17f00c526fa9c6fcf1eda7e705ef42df89b747?redirect=http%3A%2F%2Fwww.newwaterplumbing.ca%2F","https://www.yellowpages.ca/bus/Ontario/Thornhill/New-Water-Plumbing/1126404.html?what=plumbing&where=Toronto+ON&useContext=true","plumbing","2022-04-05 16:20:23.551922"
"Century Plumbing & Heating","437-370-0337","766 Gordon Baker Rd","North York","ON","M2H 3B4","https://www.yellowpages.ca/gourl/1bb028fe237a5e27fa604a07ddb2fb4f2eda4137?redirect=http%3A%2F%2Fwww.centuryplumbing.ca%2F","https://www.yellowpages.ca/bus/Ontario/North-York/Century-Plumbing-Heating/2172952.html?what=plumbing&where=Toronto+ON&useContext=true","plumbing","2022-04-05 16:20:23.552214"
"M I Plumbing Services","416-854-3356","2233 Hurontario St","Mississauga","ON","L5A 2E9","","https://www.yellowpages.ca/bus/Ontario/Mississauga/M-I-Plumbing-Services/102662695.html?what=plumbing&where=Toronto+ON&useContext=true","plumbing","2022-04-05 16:20:23.552465"
"Mr Rooter Plumbing","416-699-8623","","","","","","https://www.yellowpages.ca/bus/Ontario/Mr-Rooter-Plumbing/102374378.html?what=plumbing&where=Toronto+ON&useContext=true","plumbing","2022-04-05 16:20:23.552678"
"The Drain Man","437-370-0382","440 Brimley Rd","Scarborough","ON","M1J 1A1","https://www.yellowpages.ca/gourl/8d9cabfdaeaf332d16ab27a84ae9834b91f701dd?redirect=http%3A%2F%2Fwww.drainmaninc.com%2F","https://www.yellowpages.ca/bus/Ontario/Scarborough/The-Drain-Man/7448019.html?what=plumbing&where=Toronto+ON&useContext=true","plumbing","2022-04-05 16:20:23.552965"
"A & Y Plumbing","416-835-7986","10 Parkway Forest Dr","North York","ON","M2J 1L3","https://www.yellowpages.ca/gourl/fb6e9893eb77eed7dee4e51b10b63cab1dfb0a05?redirect=http%3A%2F%2Fwww.ayplumbing.ca%2F","https://www.yellowpages.ca/bus/Ontario/North-York/A-Y-Plumbing/8867.html?what=plumbing&where=Toronto+ON&useContext=true","plumbing","2022-04-05 16:20:23.553230"
"Peachwood Plumbing & Mechanical","416-628-3479","","","","","javascript:void(0);","https://www.yellowpages.ca/bus/Ontario/Peachwood-Plumbing-Mechanical/102774499.html?what=plumbing&where=Toronto+ON&useContext=true","plumbing","2022-04-05 16:20:23.553872"
"Canadian Master Plumbing (CMP) Inc","416-836-4436","4854 Bathurst St","North York","ON","M2R 1X3","https://www.yellowpages.ca/gourl/027d0804701de85c679aa910ec80f59aa19a587e?redirect=https%3A%2F%2Ftrustedpros.ca%2Fcompany%2Fcanadian-master-plumbing-cmp-inc","https://www.yellowpages.ca/bus/Ontario/North-York/Canadian-Master-Plumbing-CMP-Inc/101830255.html?what=plumbing&where=Toronto+ON&useContext=true","plumbing","2022-04-05 16:20:23.554216"
"Kingsdale Plumbing Co","416-221-2748","343 Kingsdale Ave","North York","ON","M2N 3X7","","https://www.yellowpages.ca/bus/Ontario/North-York/Kingsdale-Plumbing-Co/2355085.html?what=plumbing&where=Toronto+ON&useContext=true","plumbing","2022-04-05 16:20:23.554465"
"The Urban Plumber Inc","647-559-9297","343 Milverton Blvd","Toronto","ON","M4J 1W1","https://www.yellowpages.ca/gourl/a6029b3a9e3b5000d20384e79d535fb6638375b8?redirect=http%3A%2F%2Ftheurbanplumber.com%2F","https://www.yellowpages.ca/bus/Ontario/Toronto/The-Urban-Plumber-Inc/7937286.html?what=plumbing&where=Toronto+ON&useContext=true","plumbing","2022-04-05 16:20:23.554760"
"Lampert Plumbing","647-362-2287","119 Miranda Ave","York","ON","M6B 3W8","https://www.yellowpages.ca/gourl/86c53021511d7a6cbaa5c37e494c7f036e81a23f?redirect=http%3A%2F%2Fwww.lampertplumbing.ca%2F","https://www.yellowpages.ca/bus/Ontario/York/Lampert-Plumbing/6885446.html?what=plumbing&where=Toronto+ON&useContext=true","plumbing","2022-04-05 16:20:23.555021"
"Century Plumbing & Heating","437-370-0337","766 Gordon Baker Rd","North York","ON","M2H 3B4","https://www.yellowpages.ca/gourl/1d6cf6d5bd32c319d36d58b7304d5d7cbd5f1132?redirect=http%3A%2F%2Fcenturyplumbing.ca%2F","https://www.yellowpages.ca/bus/Ontario/North-York/Century-Plumbing-Heating/2172952.html?what=plumbing&where=Toronto+ON&useContext=true","plumbing","2022-04-05 16:20:23.555315"
"S and J Plumbing Services","647-558-3297","15 William Stark Rd","Stouffville","ON","L4A 0H5","https://www.yellowpages.ca/gourl/aaccc2ba11bf3cd6821c0134f740f3612069af9d?redirect=http%3A%2F%2Fsandjplumbing.ca%2F","https://www.yellowpages.ca/bus/Ontario/Stouffville/S-and-J-Plumbing-Services/6626594.html?what=plumbing&where=Toronto+ON&useContext=true","plumbing","2022-04-05 16:20:23.555579"
"Nor-Line Plumbing & Mechanical Limited","289-379-9540","70 Newkirk Rd","Richmond Hill","ON","L4C 3G3","https://www.yellowpages.ca/gourl/45ba8ec7e18afc24e4d19e099d8611bb58527c78?redirect=http%3A%2F%2Fwww.nor-line.ca%2F","https://www.yellowpages.ca/bus/Ontario/Richmond-Hill/Nor-Line-Plumbing-Mechanical-Limited/2434696.html?what=plumbing&where=Toronto+ON&useContext=true","plumbing","2022-04-05 16:20:23.555855"
"Bayvalley Mechanical Inc","416-258-7395","","Markham","ON","L3S 4H4","","https://www.yellowpages.ca/bus/Ontario/Markham/Bayvalley-Mechanical-Inc/8218514.html?what=plumbing&where=Toronto+ON&useContext=true","plumbing","2022-04-05 16:20:23.556090"
"Roma Plumbing Limited","905-660-0408","200 Edgeley Blvd","Concord","ON","L4K 3Y8","","https://www.yellowpages.ca/bus/Ontario/Concord/Roma-Plumbing-Limited/5893016.html?what=plumbing&where=Toronto+ON&useContext=true","plumbing","2022-04-05 16:20:23.556320"
"Alderwood Plumbing Services Ltd","416-233-2440","","TORONTO","ON","","javascript:void(0);","https://www.yellowpages.ca/bus/Ontario/TORONTO/Alderwood-Plumbing-Services-Ltd/5893891.html?what=plumbing&where=Toronto+ON&useContext=true","plumbing","2022-04-05 16:20:23.556539"
"Under Pressure Plumbing Services Inc","416-538-1444","","Toronto","ON","M5A 2L4","","https://www.yellowpages.ca/bus/Ontario/Toronto/Under-Pressure-Plumbing-Services-Inc/4256863.html?what=plumbing&where=Toronto+ON&useContext=true","plumbing","2022-04-05 16:20:23.556766"
"Griffiths Geo & Sons Ltd","905-475-6518","300 Steelcase Rd W","Markham","ON","L3R 2W2","https://www.yellowpages.ca/gourl/4e648252dfc1dcf6540a2acfaea7ae9cba8c829c?redirect=http%3A%2F%2Fwww.griffithsplumbing.com%2F","https://www.yellowpages.ca/bus/Ontario/Markham/Griffiths-Geo-Sons-Ltd/2300748.html?what=plumbing&where=Toronto+ON&useContext=true","plumbing","2022-04-05 16:20:23.557000"
"Pacific Plumbing And Drains Ltd","416-783-9434","831 Glencairn Ave","North York","ON","M6B 2A4","","https://www.yellowpages.ca/bus/Ontario/North-York/Pacific-Plumbing-And-Drains-Ltd/2450050.html?what=plumbing&where=Toronto+ON&useContext=true","plumbing","2022-04-05 16:20:23.557232"
"Bomben Plumbing & Heating Ltd PH17540","905-565-0300","5970 Atlantic Dr","Mississauga","ON","L4W 1N6","https://www.yellowpages.ca/gourl/a1e0a6f7153712b1b2e5556a434176a8971870cd?redirect=http%3A%2F%2Fwww.bomben.ca%2F","https://www.yellowpages.ca/bus/Ontario/Mississauga/Bomben-Plumbing-Heating-Ltd-PH17540/2131361.html?what=plumbing&where=Toronto+ON&useContext=true","plumbing","2022-04-05 16:20:23.557466"
"Mr Rooter Plumbing of Toronto ON","416-699-8623","27 Glenmount Park Rd","Toronto","ON","M4E 2M8","https://www.yellowpages.ca/gourl/194934e78032a637b096ae7950af61e6e4e5776c?redirect=https%3A%2F%2Fmrrooter.ca%2F","https://www.yellowpages.ca/bus/Ontario/Toronto/Mr-Rooter-Plumbing-of-Toronto-ON/5892681.html?what=plumbing&where=Toronto+ON&useContext=true","plumbing","2022-04-05 16:20:23.557754"
"Drain King Plumbers","647-362-2109","100 Saint Regis Cres S","North York","ON","M3J 1Y8","https://www.yellowpages.ca/gourl/da1e25754a6c71be02dfd65d70dd8e57837f965b?redirect=https%3A%2F%2Fwww.drainkingplumbers.ca%2F","https://www.yellowpages.ca/bus/Ontario/North-York/Drain-King-Plumbers/101902936.html?what=plumbing&where=Toronto+ON&useContext=true","plumbing","2022-04-05 16:20:23.558041"
"JMS Plumbing & Drains","647-846-8116","","","","","","https://www.yellowpages.ca/bus/Ontario/JMS-Plumbing-Drains/102753075.html?what=plumbing&where=Toronto+ON&useContext=true","plumbing","2022-04-05 16:20:23.558251"
"New Water Plumbing","647-559-9278
1-844-219-9974","34 Doncaster Ave","Thornhill","ON","L3T 4S1","https://www.yellowpages.ca/gourl/b7b76a57075271678ca76d214e76d1b2b29e0206?redirect=http%3A%2F%2Fnewwaterplumbing.ca%2F","https://www.yellowpages.ca/bus/Ontario/Thornhill/New-Water-Plumbing/1126404.html?what=plumbing&where=Toronto+ON&useContext=true","plumbing","2022-04-05 16:20:23.558553"
"Bartman Plumbing Ltd","647-846-8278","16-56 Pennsylvania Ave","Concord","ON","L4K 3V9","https://www.yellowpages.ca/gourl/3e0854157bdfc605fd23fdd955748e12e412b1ea?redirect=https%3A%2F%2Fwww.bartmanplumbing.com%2F","https://www.yellowpages.ca/bus/Ontario/Concord/Bartman-Plumbing-Ltd/102421730.html?what=plumbing&where=Toronto+ON&useContext=true","plumbing","2022-04-05 16:20:23.558818"
"17 Plumbing & Construction Design Ltd","647-849-3722","135 Weston Dr","Milton","ON","L9T 0V6","javascript:void(0);","https://www.yellowpages.ca/bus/Ontario/Milton/17-Plumbing-Construction-Design-Ltd/102600599.html?what=plumbing&where=Toronto+ON&useContext=true","plumbing","2022-04-05 16:20:23.559071"
"Euclid Plumbing & Heating","437-370-0697","12 Lorraine Gdns","Etobicoke","ON","M9B 4Z4","https://www.yellowpages.ca/gourl/1514ab88a7f89f03fa34be9802f25326bb2c38b6?redirect=http%3A%2F%2Feuclidplumbing.ca%2F","https://www.yellowpages.ca/bus/Ontario/Etobicoke/Euclid-Plumbing-Heating/4217847.html?what=plumbing&where=Toronto+ON&useContext=true","plumbing","2022-04-05 16:20:24.557086"
"Royal Plumbing Services","416-537-0038
1-800-536-1543","614 Dufferin St","Toronto","ON","M6K 2A9","https://www.yellowpages.ca/gourl/fd5587b94fa7dc858465447c35340be812cfaf6e?redirect=http%3A%2F%2Fwww.royalplumbers.ca%2F","https://www.yellowpages.ca/bus/Ontario/Toronto/Royal-Plumbing-Services/100370047.html?what=plumbing&where=Toronto+ON&useContext=true","plumbing","2022-04-05 16:20:24.557394"
"Paul's Plumbing Ltd","416-759-7491","841 O'Connor Dr","East York","ON","M4B 2S7","https://www.yellowpages.ca/gourl/404e932a3079691b4bb2f03c4bbf2a623da3c993?redirect=http%3A%2F%2Fwww.paulsplumbingltd.com%2F","https://www.yellowpages.ca/bus/Ontario/East-York/Paul-s-Plumbing-Ltd/1204171.html?what=plumbing&where=Toronto+ON&useContext=true","plumbing","2022-04-05 16:20:24.557663"
"A&D Marca Plumbing Inc","647-500-1312","29 Boltonview Cres","Bolton","ON","L7E 2H2","https://www.yellowpages.ca/gourl/00fa3b6bf7868b6666216594dbca3b2d554a757f?redirect=https%3A%2F%2Fwww.facebook.com%2FADMarcaPlumbing%2F","https://www.yellowpages.ca/bus/Ontario/Bolton/A-D-Marca-Plumbing-Inc/101688053.html?what=plumbing&where=Toronto+ON&useContext=true","plumbing","2022-04-05 16:20:24.557927"
"M I Plumbing Services","416-854-3356","2233 Hurontario St","Mississauga","ON","L5A 2E9","","https://www.yellowpages.ca/bus/Ontario/Mississauga/M-I-Plumbing-Services/102662695.html?what=plumbing&where=Toronto+ON&useContext=true","plumbing","2022-04-05 16:20:24.558183"
"Mimico Plumbing & Mechanical","647-360-1322","70 Albert Ave","Etobicoke","ON","M8V 2L7","https://www.yellowpages.ca/gourl/aed93f06ea127338a2a3bc1544db221a3b2cda9a?redirect=http%3A%2F%2Fmimicoplumbing.ca%2F","https://www.yellowpages.ca/bus/Ontario/Etobicoke/Mimico-Plumbing-Mechanical/8030679.html?what=plumbing&where=Toronto+ON&useContext=true","plumbing","2022-04-05 16:20:24.558500"
"Summit Mechanics Inc","647-625-1879","45 Wilson Dr","Bradford","ON","L3Z 0Y2","","https://www.yellowpages.ca/bus/Ontario/Bradford/Summit-Mechanics-Inc/102676098.html?what=plumbing&where=Toronto+ON&useContext=true","plumbing","2022-04-05 16:20:24.558742"
"AA S & J Mechanical","416-654-3143","32 Dunraven Dr","York","ON","M6M 1H1","https://www.yellowpages.ca/gourl/3617cc077d4984d77832073d92fa0112add9ca96?redirect=http%3A%2F%2Fwww.facebook.com%2F500754673462128","https://www.yellowpages.ca/bus/Ontario/York/AA-S-J-Mechanical/2069092.html?what=plumbing&where=Toronto+ON&useContext=true","plumbing","2022-04-05 16:20:24.559008"
"Ontario Pacific Plumbing","416-648-1444","","Brampton","ON","","","https://www.yellowpages.ca/bus/Ontario/Brampton/Ontario-Pacific-Plumbing/102380928.html?what=plumbing&where=Toronto+ON&useContext=true","plumbing","2022-04-05 16:20:24.559254"
"Pat's Home Hardware","416-461-5000","257 Coxwell Ave","Toronto","ON","M4L 3B5","https://www.yellowpages.ca/gourl/3f8ce7e2a18db6a489838bb2d4f4c4ebd7194291?redirect=http%3A%2F%2Fwww.homehardware.ca%2F","https://www.yellowpages.ca/bus/Ontario/Toronto/Pat-s-Home-Hardware/5894853.html?what=plumbing&where=Toronto+ON&useContext=true","plumbing","2022-04-05 16:20:24.559521"
"H2O Bath And Plumbing Supplies","647-361-4790","717 Kipling Ave","Etobicoke","ON","M8Z 5G4","https://www.yellowpages.ca/gourl/b24da8e721f1224d437ec7feebc697128ddd16aa?redirect=http%3A%2F%2Fwww.h2obath.com%2F","https://www.yellowpages.ca/bus/Ontario/Etobicoke/H2O-Bath-And-Plumbing-Supplies/5869062.html?what=plumbing&where=Toronto+ON&useContext=true","plumbing","2022-04-05 16:20:24.559784"
"Niagara Water Services","416-231-2000","277 Bering Ave","Etobicoke","ON","M8Z 3A5","https://www.yellowpages.ca/gourl/4f36dc3102c546f21cefbfd3ac5df4ae34545cec?redirect=https%3A%2F%2Fwww.facebook.com%2FNiagaraWaterServices%2F","https://www.yellowpages.ca/bus/Ontario/Etobicoke/Niagara-Water-Services/1130191.html?what=plumbing&where=Toronto+ON&useContext=true","plumbing","2022-04-05 16:20:24.560037"
"Beach Plumbing & Heating","416-691-3555","378-2255B Queen St E","Toronto","ON","M4E 1G3","","https://www.yellowpages.ca/bus/Ontario/Toronto/Beach-Plumbing-Heating/7815761.html?what=plumbing&where=Toronto+ON&useContext=true","plumbing","2022-04-05 16:20:24.560302"
"Rooter Group Inc","1-800-276-6837","","","","","","https://www.yellowpages.ca/bus/Ontario/Rooter-Group-Inc/5329128.html?what=plumbing&where=Toronto+ON&useContext=true","plumbing","2022-04-05 16:20:24.560519"
"Battaglia Mechanical Services","905-415-2136","210 Don Park Rd","Markham","ON","L3R 2V2","https://www.yellowpages.ca/gourl/17afc7dc7bd9da604fc7ea0806c76a574bd143af?redirect=http%3A%2F%2Fbattagliamechanical.com%2F","https://www.yellowpages.ca/bus/Ontario/Markham/Battaglia-Mechanical-Services/7969755.html?what=plumbing&where=Toronto+ON&useContext=true","plumbing","2022-04-05 16:20:24.560761"
"G M C Plumbing & Heating","647-559-9364","12 Oakland Ave","North York","ON","M9M 2H8","https://www.yellowpages.ca/gourl/94846bc9acb51bd44af52ff1f5ee10f64cec1b32?redirect=http%3A%2F%2Fgmcplumbing.com%2F","https://www.yellowpages.ca/bus/Ontario/North-York/G-M-C-Plumbing-Heating/662814.html?what=plumbing&where=Toronto+ON&useContext=true","plumbing","2022-04-05 16:20:24.561020"
"Mr Rooter","416-488-1940","","","","","","https://www.yellowpages.ca/bus/Ontario/Mr-Rooter/101726564.html?what=plumbing&where=Toronto+ON&useContext=true","plumbing","2022-04-05 16:20:24.561224"
"Complete Plumbing","416-616-0049","","","","","","https://www.yellowpages.ca/bus/Ontario/Complete-Plumbing/7917000.html?what=plumbing&where=Toronto+ON&useContext=true","plumbing","2022-04-05 16:20:24.561416"
"Moen Inc","905-829-3400
1-800-465-6130","2816 Bristol Cir","Oakville","ON","L6H 5S7","https://www.yellowpages.ca/gourl/1c2671d57b5cd02ed6419f0ee5edbbd7c0e02786?redirect=http%3A%2F%2Fwww.moen.com%2F","https://www.yellowpages.ca/bus/Ontario/Oakville/Moen-Inc/2415319.html?what=plumbing&where=Toronto+ON&useContext=true","plumbing","2022-04-05 16:20:24.561692"
"Enercare Home Services","519-750-1530","","","","","","https://www.yellowpages.ca/bus/Ontario/Enercare-Home-Services/101279366.html?what=plumbing&where=Toronto+ON&useContext=true","plumbing","2022-04-05 16:20:24.561886"
"Thorndale International I","905-940-2611","25 Valleywood Dr","Markham","ON","L3R 5L9","javascript:void(0);","https://www.yellowpages.ca/bus/Ontario/Markham/Thorndale-International-I/3432239.html?what=plumbing&where=Toronto+ON&useContext=true","plumbing","2022-04-05 16:20:24.562119"
"Trouble Shooters Plumbing & Drains","416-291-9444","2370 Midland Ave","Scarborough","ON","M1S 5C6","https://www.yellowpages.ca/gourl/6e8a623875dd2108e862b00974dcb7d87d418a7a?redirect=https%3A%2F%2Ftorontoplumbers.com%2F","https://www.yellowpages.ca/bus/Ontario/Scarborough/Trouble-Shooters-Plumbing-Drains/7844180.html?what=plumbing&where=Toronto+ON&useContext=true","plumbing","2022-04-05 16:20:24.562377"
"Mr Rooter Plumbing of North York ON","416-742-3137","71 Penn Dr","North York","ON","M9L 2A6","https://www.yellowpages.ca/gourl/194934e78032a637b096ae7950af61e6e4e5776c?redirect=https%3A%2F%2Fmrrooter.ca%2F","https://www.yellowpages.ca/bus/Ontario/North-York/Mr-Rooter-Plumbing-of-North-York-ON/8002828.html?what=plumbing&where=Toronto+ON&useContext=true","plumbing","2022-04-05 16:20:24.562667"
"Direct Energy Home Services","705-646-1020","","","","","","https://www.yellowpages.ca/bus/Ontario/Direct-Energy-Home-Services/100477669.html?what=plumbing&where=Toronto+ON&useContext=true","plumbing","2022-04-05 16:20:24.562864"
"Mr. Rooter Plumbing","416-742-6523","151 Front St W","Toronto","ON","M5J 2N1","","https://www.yellowpages.ca/bus/Ontario/Toronto/Mr-Rooter-Plumbing/7155831.html?what=plumbing&where=Toronto+ON&useContext=true","plumbing","2022-04-05 16:20:24.563093"
"Mr Rooter Plumbing Of Scarborough","416-755-4663","","","","","","https://www.yellowpages.ca/bus/Ontario/Mr-Rooter-Plumbing-Of-Scarborough/100220276.html?what=plumbing&where=Toronto+ON&useContext=true","plumbing","2022-04-05 16:20:24.563285"
"Azad Heating And Plumbing Supplies","416-907-1045","2914 Danforth Ave","Toronto","ON","M4C 1M1","https://www.yellowpages.ca/gourl/edd066931049b86f50a8b553425e196d6926c058?redirect=http%3A%2F%2Fazadheatingandplumbing.sitereview.ca%2F","https://www.yellowpages.ca/bus/Ontario/Toronto/Azad-Heating-And-Plumbing-Supplies/102340439.html?what=plumbing&where=Toronto+ON&useContext=true","plumbing","2022-04-05 16:20:24.563519"
"Arka Plumbing","647-783-9369","454 Dover St N","Cambridge","ON","N3H 1K9","javascript:void(0);","https://www.yellowpages.ca/bus/Ontario/Cambridge/Arka-Plumbing/100267620.html?what=plumbing&where=Toronto+ON&useContext=true","plumbing","2022-04-05 16:20:24.563798"
"Detailed Plumbing Ltd","416-992-1071","901 Dales Ave","Newmarket","ON","L3Y 5Z6","javascript:void(0);","https://www.yellowpages.ca/bus/Ontario/Newmarket/Detailed-Plumbing-Ltd/102028549.html?what=plumbing&where=Toronto+ON&useContext=true","plumbing","2022-04-05 16:20:24.564047"
"Enercare","519-746-6863","","","","","","https://www.yellowpages.ca/bus/Ontario/Enercare/101155994.html?what=plumbing&where=Toronto+ON&useContext=true","plumbing","2022-04-05 16:20:24.564237"
"Kitchen & Bath Classics","905-575-1210","","","","","","https://www.yellowpages.ca/bus/Ontario/Kitchen-Bath-Classics/8118968.html?what=plumbing&where=Toronto+ON&useContext=true","plumbing","2022-04-05 16:20:24.564431"
"Mr Rooter Plumbing","705-325-6362","","","","","","https://www.yellowpages.ca/bus/Ontario/Mr-Rooter-Plumbing/101650451.html?what=plumbing&where=Toronto+ON&useContext=true","plumbing","2022-04-05 16:20:24.564619"
"Mr Rooter Plumbing","519-278-4200","","","","","","https://www.yellowpages.ca/bus/Ontario/Mr-Rooter-Plumbing/101055561.html?what=plumbing&where=Toronto+ON&useContext=true","plumbing","2022-04-05 16:20:24.564811"
"Mr Rooter Plumbing","226-706-1742","","","","","","https://www.yellowpages.ca/bus/Ontario/Mr-Rooter-Plumbing/101058009.html?what=plumbing&where=Toronto+ON&useContext=true","plumbing","2022-04-05 16:20:24.565004"
"Lennox Partsplus","416-526-9540","2977 St Etienne Blvd","Windsor","ON","N8W 5B1","https://www.yellowpages.ca/gourl/2d70af9750c63690dffe17ee9dfcfe611293c9ba?redirect=http%3A%2F%2Fwww.facebook.com%2F2099852116949142","https://www.yellowpages.ca/bus/Ontario/Windsor/Lennox-Partsplus/102200050.html?what=plumbing&where=Toronto+ON&useContext=true","plumbing","2022-04-05 16:20:24.565236"
"Crane Supply","647-729-9523","210 Dundas St W","Toronto","ON","M5G 2E8","https://www.yellowpages.ca/gourl/5c24d9f7663b5327c955836b17007ccdbadc2b99?redirect=http%3A%2F%2Fwww.cranesupply.com%2F","https://www.yellowpages.ca/bus/Ontario/Toronto/Crane-Supply/7241136.html?what=plumbing&where=Toronto+ON&useContext=true","plumbing","2022-04-05 16:20:25.560648"
"Crane Supply","416-244-5629","615 Dixon Rd","Etobicoke","ON","M9W 1H9","https://www.yellowpages.ca/gourl/5c24d9f7663b5327c955836b17007ccdbadc2b99?redirect=http%3A%2F%2Fwww.cranesupply.com%2F","https://www.yellowpages.ca/bus/Ontario/Etobicoke/Crane-Supply/7130308.html?what=plumbing&where=Toronto+ON&useContext=true","plumbing","2022-04-05 16:20:25.560893"
"Crane Supply","416-244-5351","141 Royal Group Crescent","Vaughan","ON","L4H 1X9","https://www.yellowpages.ca/gourl/5f5dd6184f6a43eea9b534ba3240edad61168013?redirect=http%3A%2F%2Fcranesupply.com%2F","https://www.yellowpages.ca/bus/Ontario/Vaughan/Crane-Supply/7779327.html?what=plumbing&where=Toronto+ON&useContext=true","plumbing","2022-04-05 16:20:25.561132"
"Mr Rooter","289-639-2207","","","","","","https://www.yellowpages.ca/bus/Ontario/Mr-Rooter/8019896.html?what=plumbing&where=Toronto+ON&useContext=true","plumbing","2022-04-05 16:20:25.561334"
"Wolseley Canada Inc","416-746-2171","210 Rexdale Blvd","Etobicoke","ON","M9W 1R2","https://www.yellowpages.ca/gourl/6452ee3d1b307f354c5e76e4ecd5c10dea9e92f3?redirect=http%3A%2F%2Fwww.wolseleyinc.ca%2F","https://www.yellowpages.ca/bus/Ontario/Etobicoke/Wolseley-Canada-Inc/2438865.html?what=plumbing&where=Toronto+ON&useContext=true","plumbing","2022-04-05 16:20:25.561593"
"Wolseley Canada Inc","416-252-5628","1581 The Queensway","Etobicoke","ON","M8Z 1T8","","https://www.yellowpages.ca/bus/Ontario/Etobicoke/Wolseley-Canada-Inc/100551316.html?what=plumbing&where=Toronto+ON&useContext=true","plumbing","2022-04-05 16:20:25.561829"
"A1 Plumbing Service","647-618-0841","","","","","","https://www.yellowpages.ca/bus/Ontario/A1-Plumbing-Service/101651807.html?what=plumbing&where=Toronto+ON&useContext=true","plumbing","2022-04-05 16:20:25.562023"
"Drain Rescue Plumbers","1-833-200-7888","1173 Lansdowne Ave","Toronto","ON","M6H 3Z7","https://www.yellowpages.ca/gourl/c72ff1c6f663a278317438b254368919044010c8?redirect=http%3A%2F%2Fdrainrescueplumbers.com%2F","https://www.yellowpages.ca/bus/Ontario/Toronto/Drain-Rescue-Plumbers/100478757.html?what=plumbing&where=Toronto+ON&useContext=true","plumbing","2022-04-05 16:20:25.562275"
"Drain Rescue Plumbers","1-833-200-7888","12-50 Paxman Road","Etobicoke","ON","M9C 1B7","https://www.yellowpages.ca/gourl/c72ff1c6f663a278317438b254368919044010c8?redirect=http%3A%2F%2Fdrainrescueplumbers.com%2F","https://www.yellowpages.ca/bus/Ontario/Etobicoke/Drain-Rescue-Plumbers/8188666.html?what=plumbing&where=Toronto+ON&useContext=true","plumbing","2022-04-05 16:20:25.562555"
"Priority Plumbing","416-762-8662","1594 Dupont St","Toronto","ON","M6P 3S7","https://www.yellowpages.ca/gourl/6ef978bf57bba86ccc199cf81ba921f6616af7c8?redirect=http%3A%2F%2Fpriorityplumbing.ca%2F","https://www.yellowpages.ca/bus/Ontario/Toronto/Priority-Plumbing/7973940.html?what=plumbing&where=Toronto+ON&useContext=true","plumbing","2022-04-05 16:20:25.562837"
"Best Plumbing","647-457-0978","91 Gauguin Ave","Thornhill","ON","L4J 9J4","https://www.yellowpages.ca/gourl/a4b806ad99a8877c1bb01876a600e7cac847b1f8?redirect=https%3A%2F%2Fthebestplumber.ca%2F","https://www.yellowpages.ca/bus/Ontario/Thornhill/Best-Plumbing/101893959.html?what=plumbing&where=Toronto+ON&useContext=true","plumbing","2022-04-05 16:20:25.563069"
"Drain Rescue Plumbers","1-833-200-7888","12-176 Yonge St","Toronto","ON","M5C 2L7","https://www.yellowpages.ca/gourl/c72ff1c6f663a278317438b254368919044010c8?redirect=http%3A%2F%2Fdrainrescueplumbers.com%2F","https://www.yellowpages.ca/bus/Ontario/Toronto/Drain-Rescue-Plumbers/7247857.html?what=plumbing&where=Toronto+ON&useContext=true","plumbing","2022-04-05 16:20:25.563308"
"Elite Plumbing","416-335-6169","148 Shorting Rd","Scarborough","ON","M1S 3S6","https://www.yellowpages.ca/gourl/0a7fc5062a7481491dedbcd226f3101b3375f3d5?redirect=http%3A%2F%2Fwww.facebook.com%2F198359427629891","https://www.yellowpages.ca/bus/Ontario/Scarborough/Elite-Plumbing/101040943.html?what=plumbing&where=Toronto+ON&useContext=true","plumbing","2022-04-05 16:20:25.563547"
"Priority Plumbing","289-216-4365","1594 Dupont St","Toronto","ON","M6P 3S7","","https://www.yellowpages.ca/bus/Ontario/Toronto/Priority-Plumbing/102408121.html?what=plumbing&where=Toronto+ON&useContext=true","plumbing","2022-04-05 16:20:25.563781"
"Mark's Plumbing","705-840-9074","","","","","","https://www.yellowpages.ca/bus/Ontario/Mark-s-Plumbing/4042283.html?what=plumbing&where=Toronto+ON&useContext=true","plumbing","2022-04-05 16:20:25.563977"
"Master Plumber","647-637-3279","","","","","","https://www.yellowpages.ca/bus/Ontario/Master-Plumber/101672504.html?what=plumbing&where=Toronto+ON&useContext=true","plumbing","2022-04-05 16:20:25.564167"
"Priority Plumbing","416-421-5130","","","","","","https://www.yellowpages.ca/bus/Ontario/Priority-Plumbing/101672505.html?what=plumbing&where=Toronto+ON&useContext=true","plumbing","2022-04-05 16:20:25.564358"
"Master Plumber","613-246-0463","","","","","","https://www.yellowpages.ca/bus/Ontario/Master-Plumber/8157035.html?what=plumbing&where=Toronto+ON&useContext=true","plumbing","2022-04-05 16:20:25.564549"
"Steve Plumbing Inc","416-456-0556","","","","","","https://www.yellowpages.ca/bus/Ontario/Steve-Plumbing-Inc/8218685.html?what=plumbing&where=Toronto+ON&useContext=true","plumbing","2022-04-05 16:20:25.564738"
"Priority Plumbing","519-762-3446","","","","","","https://www.yellowpages.ca/bus/Ontario/Priority-Plumbing/101055595.html?what=plumbing&where=Toronto+ON&useContext=true","plumbing","2022-04-05 16:20:25.564928"
"Redline Plumbing","647-981-5010","","","ON","Z3Z 3Z3","","https://www.yellowpages.ca/bus/Ontario/Redline-Plumbing/100668928.html?what=plumbing&where=Toronto+ON&useContext=true","plumbing","2022-04-05 16:20:25.565136"
"Master Plumber","416-948-6536","","","","","","https://www.yellowpages.ca/bus/Ontario/Master-Plumber/100394379.html?what=plumbing&where=Toronto+ON&useContext=true","plumbing","2022-04-05 16:20:25.565326"
"Master Plumber","613-885-6463","","","","","","https://www.yellowpages.ca/bus/Ontario/Master-Plumber/8082797.html?what=plumbing&where=Toronto+ON&useContext=true","plumbing","2022-04-05 16:20:25.565514"
"Next Plumbing Supply","416-466-4884","17 Polson St","Toronto","ON","M5A 1A4","https://www.yellowpages.ca/gourl/cc46ccba80277f59fa8752baa3af99a95dcf0d7c?redirect=http%3A%2F%2Fwww.nextsupply.ca%2F","https://www.yellowpages.ca/bus/Ontario/Toronto/Next-Plumbing-Supply/8237586.html?what=plumbing&where=Toronto+ON&useContext=true","plumbing","2022-04-05 16:20:25.565751"
"Park Lane Plumbing Ltd","416-553-1186","","","","","","https://www.yellowpages.ca/bus/Ontario/Park-Lane-Plumbing-Ltd/7177054.html?what=plumbing&where=Toronto+ON&useContext=true","plumbing","2022-04-05 16:20:25.565987"
"Richmond Hill Plumbing","647-556-4847","","Toronto","ON","Z3Z 3Z3","","https://www.yellowpages.ca/bus/Ontario/Toronto/Richmond-Hill-Plumbing/100465255.html?what=plumbing&where=Toronto+ON&useContext=true","plumbing","2022-04-05 16:20:25.566266"
"Phoenix Plumbing","416-821-0088","","","","","","https://www.yellowpages.ca/bus/Ontario/Phoenix-Plumbing/5982796.html?what=plumbing&where=Toronto+ON&useContext=true","plumbing","2022-04-05 16:20:25.566476"
"Y T Gifts Co Ltd","416-364-7188","30 Wellington St E","Toronto","ON","M5E 1S3","","https://www.yellowpages.ca/bus/Ontario/Toronto/Y-T-Gifts-Co-Ltd/8143102.html?what=plumbing&where=Toronto+ON&useContext=true","plumbing","2022-04-05 16:20:25.566709"
"Ryan's Plumbing","416-676-8979","55 Lyton Cres","Stoney Creek","ON","L8J 2C8","","https://www.yellowpages.ca/bus/Ontario/Stoney-Creek/Ryan-s-Plumbing/101280848.html?what=plumbing&where=Toronto+ON&useContext=true","plumbing","2022-04-05 16:20:25.566951"
"JR Plumbing","416-648-0038","","","","","","https://www.yellowpages.ca/bus/Ontario/JR-Plumbing/7227377.html?what=plumbing&where=Toronto+ON&useContext=true","plumbing","2022-04-05 16:20:25.567149"
"Butler Plumbing","613-725-9898","","","","","","https://www.yellowpages.ca/bus/Ontario/Butler-Plumbing/8095661.html?what=plumbing&where=Toronto+ON&useContext=true","plumbing","2022-04-05 16:20:25.567347"
"Marci Plumbing And Heating Ltd","416-244-8956","","","","","","https://www.yellowpages.ca/bus/Ontario/Marci-Plumbing-And-Heating-Ltd/1014183.html?what=plumbing&where=Toronto+ON&useContext=true","plumbing","2022-04-05 16:20:25.567539"
"Enercare Home Services","519-659-7501","","","","","","https://www.yellowpages.ca/bus/Ontario/Enercare-Home-Services/100659480.html?what=plumbing&where=Toronto+ON&useContext=true","plumbing","2022-04-05 16:20:25.567730"
"Four Seasons Mechanical","416-805-5289","48 Baronwood Crt","Brampton","ON","L6V 3H6","","https://www.yellowpages.ca/bus/Ontario/Brampton/Four-Seasons-Mechanical/100031614.html?what=plumbing&where=Toronto+ON&useContext=true","plumbing","2022-04-05 16:20:25.567959"
"Chris Plumbing","647-292-1723","","","","","","https://www.yellowpages.ca/bus/Ontario/Chris-Plumbing/101024231.html?what=plumbing&where=Toronto+ON&useContext=true","plumbing","2022-04-05 16:20:25.568148"
"Chris Plumbing","613-355-9175","","","","","","https://www.yellowpages.ca/bus/Ontario/Chris-Plumbing/101076609.html?what=plumbing&where=Toronto+ON&useContext=true","plumbing","2022-04-05 16:20:26.702911"
"Munger Plumbing & Electric","519-738-9163","","","","","","https://www.yellowpages.ca/bus/Ontario/Munger-Plumbing-Electric/100760357.html?what=plumbing&where=Toronto+ON&useContext=true","plumbing","2022-04-05 16:20:26.703116"
"Empire Plumbing","647-885-9057","","","","","","https://www.yellowpages.ca/bus/Ontario/Empire-Plumbing/100747147.html?what=plumbing&where=Toronto+ON&useContext=true","plumbing","2022-04-05 16:20:26.703323"
"Luke Bingham Plumbing","905-244-8065","","","","","","https://www.yellowpages.ca/bus/Ontario/Luke-Bingham-Plumbing/101023707.html?what=plumbing&where=Toronto+ON&useContext=true","plumbing","2022-04-05 16:20:26.703526"
"Enercare Home Services","905-353-9650","","","","","","https://www.yellowpages.ca/bus/Ontario/Enercare-Home-Services/101231773.html?what=plumbing&where=Toronto+ON&useContext=true","plumbing","2022-04-05 16:20:26.703727"
"Enercare Home Services","613-247-9880","","","","","","https://www.yellowpages.ca/bus/Ontario/Enercare-Home-Services/101103331.html?what=plumbing&where=Toronto+ON&useContext=true","plumbing","2022-04-05 16:20:26.703928"
"Enercare Home Services","519-763-8060","","","","","","https://www.yellowpages.ca/bus/Ontario/Enercare-Home-Services/101121021.html?what=plumbing&where=Toronto+ON&useContext=true","plumbing","2022-04-05 16:20:26.704132"
"Enercare Home Services","519-256-9110","","","","","","https://www.yellowpages.ca/bus/Ontario/Enercare-Home-Services/101312552.html?what=plumbing&where=Toronto+ON&useContext=true","plumbing","2022-04-05 16:20:26.704337"
"Enercare Home Services","705-737-4816","","","","","","https://www.yellowpages.ca/bus/Ontario/Enercare-Home-Services/101279400.html?what=plumbing&where=Toronto+ON&useContext=true","plumbing","2022-04-05 16:20:26.704547"
"Enercare Home Services","613-771-1722","","","","","","https://www.yellowpages.ca/bus/Ontario/Enercare-Home-Services/101228660.html?what=plumbing&where=Toronto+ON&useContext=true","plumbing","2022-04-05 16:20:26.704756"
"Royal Plumbing Services","416-537-0038","614 Dufferin St","Toronto","ON","M6K 2A9","https://www.yellowpages.ca/gourl/fd5587b94fa7dc858465447c35340be812cfaf6e?redirect=http%3A%2F%2Fwww.royalplumbers.ca%2F","https://www.yellowpages.ca/bus/Ontario/Toronto/Royal-Plumbing-Services/1369596.html?what=plumbing&where=Toronto+ON&useContext=true","plumbing","2022-04-05 16:20:26.705055"
"A Alert Drain","416-244-6891","","","ON","L4K 4E9","javascript:void(0);","https://www.yellowpages.ca/bus/Ontario/A-Alert-Drain/2720222.html?what=plumbing&where=Toronto+ON&useContext=true","plumbing","2022-04-05 16:20:26.705308"
"Providence Plumbing","647-551-2069","345 Highfield Rd","Toronto","ON","M4L 2V4","https://www.yellowpages.ca/gourl/4aab553f49768dba817068429623a42bf60664dd?redirect=http%3A%2F%2Fwww.facebook.com%2F1544116235911807","https://www.yellowpages.ca/bus/Ontario/Toronto/Providence-Plumbing/101110088.html?what=plumbing&where=Toronto+ON&useContext=true","plumbing","2022-04-05 16:20:26.705606"
"Harris Plumbing","905-853-8520
1-866-786-1801","","Newmarket","ON","","javascript:void(0);","https://www.yellowpages.ca/bus/Ontario/Newmarket/Harris-Plumbing/101010989.html?what=plumbing&where=Toronto+ON&useContext=true","plumbing","2022-04-05 16:20:26.705860"
"RR Plumbing","416-828-4843","","","ON","Z6Z 6Z6","","https://www.yellowpages.ca/bus/Ontario/RR-Plumbing/100751717.html?what=plumbing&where=Toronto+ON&useContext=true","plumbing","2022-04-05 16:20:26.706114"
"AMC Plumbing Services","647-989-6002","461 Heddle Cres","Newmarket","ON","L3X 2J4","https://www.yellowpages.ca/gourl/52ccc590181ce49da77db0aa11d1f3105774ae98?redirect=http%3A%2F%2Fwww.amcplumbingservices.ca%2F","https://www.yellowpages.ca/bus/Ontario/Newmarket/AMC-Plumbing-Services/100751631.html?what=plumbing&where=Toronto+ON&useContext=true","plumbing","2022-04-05 16:20:26.706440"
"Throne Plumbing Gas Ltd","416-855-9899","8-1200 Phillip Murray Ave","Oshawa","ON","L1J 6Z8","https://www.yellowpages.ca/gourl/1ef2a577ea8910bb35286da74c93addb8255c132?redirect=http%3A%2F%2Fwww.throneplumbing.ca%2F","https://www.yellowpages.ca/bus/Ontario/Oshawa/Throne-Plumbing-Gas-Ltd/100986436.html?what=plumbing&where=Toronto+ON&useContext=true","plumbing","2022-04-05 16:20:26.706711"
"Gravity Plumbing and Heating","705-344-6835","200 Shamrock Road","Kawartha Lakes","ON","K0L 2W0","https://www.yellowpages.ca/gourl/9fad9a613252fcc11ce29181d1d8f383e5263247?redirect=http%3A%2F%2Fwww.gravityplumbingandheating.ca%2F","https://www.yellowpages.ca/bus/Ontario/Kawartha-Lakes/Gravity-Plumbing-and-Heating/101309718.html?what=plumbing&where=Toronto+ON&useContext=true","plumbing","2022-04-05 16:20:26.706981"
"Harding Plumbing And Heating","416-405-8496","224 Sloane Ave","North York","ON","M4A 2C7","https://www.yellowpages.ca/gourl/2e0147e03276c81a2739d19f5a979b61b5d69e0e?redirect=http%3A%2F%2Fwww.hardingplumbingandheating.com%2F","https://www.yellowpages.ca/bus/Ontario/North-York/Harding-Plumbing-And-Heating/751575.html?what=plumbing&where=Toronto+ON&useContext=true","plumbing","2022-04-05 16:20:26.707253"
"Renaissance Painters","226-234-6397","","London","ON","N5Y 3P3","","https://www.yellowpages.ca/bus/Ontario/London/Renaissance-Painters/101055480.html?what=plumbing&where=Toronto+ON&useContext=true","plumbing","2022-04-05 16:20:26.707501"
"Alba Watertech Inc","416-890-4507","1291 Bayview Ave","East York","ON","M4G 2Z9","https://www.yellowpages.ca/gourl/c255120878629f2e28c47a81c69f4400a06b0f26?redirect=http%3A%2F%2Falbawatertech.ca%2F","https://www.yellowpages.ca/bus/Ontario/East-York/Alba-Watertech-Inc/7969406.html?what=plumbing&where=Toronto+ON&useContext=true","plumbing","2022-04-05 16:20:26.707761"
"Lisi Mechanical Contractors Ltd","416-674-8333","160 Disco Rd","Etobicoke","ON","M9W 1M4","https://www.yellowpages.ca/gourl/9f5356f7ea3f1f906eb85e2039f944e6496fb006?redirect=http%3A%2F%2Fwww.lisimechanical.com%2F","https://www.yellowpages.ca/bus/Ontario/Etobicoke/Lisi-Mechanical-Contractors-Ltd/965357.html?what=plumbing&where=Toronto+ON&useContext=true","plumbing","2022-04-05 16:20:26.708022"
"Pearce Plumbing","647-291-8905","","","","","","https://www.yellowpages.ca/bus/Ontario/Pearce-Plumbing/7912809.html?what=plumbing&where=Toronto+ON&useContext=true","plumbing","2022-04-05 16:20:26.708236"
"Platinum Plumbing","416-825-6839","","Vaughan","ON","","","https://www.yellowpages.ca/bus/Ontario/Vaughan/Platinum-Plumbing/101054589.html?what=plumbing&where=Toronto+ON&useContext=true","plumbing","2022-04-05 16:20:26.708469"
"Precision Plumbing","416-410-2913","","","","","","https://www.yellowpages.ca/bus/Ontario/Precision-Plumbing/1260725.html?what=plumbing&where=Toronto+ON&useContext=true","plumbing","2022-04-05 16:20:26.708679"
"ADP Toronto Plumbing","416-822-2221","51 Homewood Ave","Toronto","ON","M4Y 2K1","https://www.yellowpages.ca/gourl/4333e34f994de108383e343efd4a16f700f5c24a?redirect=http%3A%2F%2Fonetorontoplumbing.com%2F","https://www.yellowpages.ca/bus/Ontario/Toronto/ADP-Toronto-Plumbing/8208951.html?what=plumbing&where=Toronto+ON&useContext=true","plumbing","2022-04-05 16:20:26.708956"
"The Pipe Wrenchers","416-879-2050","700 Ontario St","Toronto","ON","M4X 1N2","https://www.yellowpages.ca/gourl/f7f988239d877cc1926ffc33681e64e92248e4b2?redirect=https%3A%2F%2Fwww.facebook.com%2Fthepipewrenchers%2F","https://www.yellowpages.ca/bus/Ontario/Toronto/The-Pipe-Wrenchers/101427954.html?what=plumbing&where=Toronto+ON&useContext=true","plumbing","2022-04-05 16:20:26.709224"
"Adam Plumbing & Heating","647-317-4355","275 Dundas St W","Toronto","ON","M5T 3K1","","https://www.yellowpages.ca/bus/Ontario/Toronto/Adam-Plumbing-Heating/7160013.html?what=plumbing&where=Toronto+ON&useContext=true","plumbing","2022-04-05 16:20:26.709463"
"Nissi Plumbing","416-878-1995","","","","","","https://www.yellowpages.ca/bus/Ontario/Nissi-Plumbing/7869720.html?what=plumbing&where=Toronto+ON&useContext=true","plumbing","2022-04-05 16:20:26.709661"
"Bracks Plumbing","519-495-1053","","London","ON","","","https://www.yellowpages.ca/bus/Ontario/London/Bracks-Plumbing/101066565.html?what=plumbing&where=Toronto+ON&useContext=true","plumbing","2022-04-05 16:20:26.709889"
"Plumbing Electrical Company","519-729-3502","","","","","","https://www.yellowpages.ca/bus/Ontario/Plumbing-Electrical-Company/8135348.html?what=plumbing&where=Toronto+ON&useContext=true","plumbing","2022-04-05 16:20:26.710106"
"DM Plumbing & Drain Service","416-677-9966","5949 Yonge St","North York","ON","M2M 3V8","https://www.yellowpages.ca/gourl/f56929a65f918a8e1eeb7f514dc506d811f926c3?redirect=http%3A%2F%2Fwww.facebook.com%2F137957290242747","https://www.yellowpages.ca/bus/Ontario/North-York/DM-Plumbing-Drain-Service/100031262.html?what=plumbing&where=Toronto+ON&useContext=true","plumbing","2022-04-05 16:20:26.710334"
"Vanguard Mechanical Ltd","416-783-5936","27 Meteor Dr","Etobicoke","ON","M9W 1A3","https://www.yellowpages.ca/gourl/f33db6dca482b54ea82e9c3ef0e06e7d6fcfa3e5?redirect=http%3A%2F%2Fwww.vanguardmechanical.com%2F","https://www.yellowpages.ca/bus/Ontario/Etobicoke/Vanguard-Mechanical-Ltd/3561893.html?what=plumbing&where=Toronto+ON&useContext=true","plumbing","2022-04-05 16:20:26.710594"
"Dodds Plumbing","905-230-1396","57 Brackmere Circle","Brampton","ON","L6W 4B9","https://www.yellowpages.ca/gourl/b734d6d865a4b8e7f4451f6e9c0548f3000e97ff?redirect=http%3A%2F%2Fwww.facebook.com%2F233151970564579","https://www.yellowpages.ca/bus/Ontario/Brampton/Dodds-Plumbing/101549322.html?what=plumbing&where=Toronto+ON&useContext=true","plumbing","2022-04-05 16:20:26.710830"
"Macrory Plumbing","416-788-6232","1281 De Quincy Cres","Burlington","ON","L7P 1E5","https://www.yellowpages.ca/gourl/c0a4bfb95c29390600d277f0a17a2335bdde77cc?redirect=http%3A%2F%2Fwww.macroryplumbing.com%2F","https://www.yellowpages.ca/bus/Ontario/Burlington/Macrory-Plumbing/102203216.html?what=plumbing&where=Toronto+ON&useContext=true","plumbing","2022-04-05 16:20:26.711070"
"Whitetail","613-229-1030","","","","","","https://www.yellowpages.ca/bus/Ontario/Whitetail/6466465.html?what=plumbing&where=Toronto+ON&useContext=true","plumbing","2022-04-05 16:20:27.611440"
"Walker's Plumbing","416-231-5031","10 Kings Point Dr","Etobicoke","ON","M8Y 1Z4","https://www.yellowpages.ca/gourl/88ea66dc0e6967bf958fc58e952faf83a9f10a36?redirect=http%3A%2F%2Fwww.facebook.com%2F134031727268349","https://www.yellowpages.ca/bus/Ontario/Etobicoke/Walker-s-Plumbing/2609859.html?what=plumbing&where=Toronto+ON&useContext=true","plumbing","2022-04-05 16:20:27.611720"
"Frank The Plumber","416-399-9657","42 Majestic Cres","Brampton","ON","L6S 3N2","https://www.yellowpages.ca/gourl/8314eb471abbbb31bd9ac11e888c99c9d45bfe64?redirect=http%3A%2F%2Fwww.facebook.com%2F174293389830795","https://www.yellowpages.ca/bus/Ontario/Brampton/Frank-The-Plumber/102094335.html?what=plumbing&where=Toronto+ON&useContext=true","plumbing","2022-04-05 16:20:27.611960"
"Reliable Plumbing Solutions","416-569-5077","1498 Pilgrims Way","Oakville","ON","L6M 3G9","https://www.yellowpages.ca/gourl/5cbab9409a583ecaa6707cf674eea9945d3f3320?redirect=https%3A%2F%2Fwww.facebook.com%2FReliablePlumbing79%2F","https://www.yellowpages.ca/bus/Ontario/Oakville/Reliable-Plumbing-Solutions/102285602.html?what=plumbing&where=Toronto+ON&useContext=true","plumbing","2022-04-05 16:20:27.612201"
"Milton Plumbing Ltd","416-528-7292","","","","","","https://www.yellowpages.ca/bus/Ontario/Milton-Plumbing-Ltd/7185242.html?what=plumbing&where=Toronto+ON&useContext=true","plumbing","2022-04-05 16:20:27.612401"
"Precision Plumbing","705-321-6749","","","","","","https://www.yellowpages.ca/bus/Ontario/Precision-Plumbing/101023879.html?what=plumbing&where=Toronto+ON&useContext=true","plumbing","2022-04-05 16:20:27.612621"
"Burnett's Highland Plumbing","416-607-6234","","","","","","https://www.yellowpages.ca/bus/Ontario/Burnett-s-Highland-Plumbing/100328201.html?what=plumbing&where=Toronto+ON&useContext=true","plumbing","2022-04-05 16:20:27.612813"
"Drainworks","647-362-2187","80 Nealon Ave","East York","ON","M4K 1Z2","","https://www.yellowpages.ca/bus/Ontario/East-York/Drainworks/102363593.html?what=plumbing&where=Toronto+ON&useContext=true","plumbing","2022-04-05 16:20:27.613044"
"Steve's Plumbing","647-883-9929","1 St Clair Ave W","Toronto","ON","M4V 1K6","","https://www.yellowpages.ca/bus/Ontario/Toronto/Steve-s-Plumbing/101778888.html?what=plumbing&where=Toronto+ON&useContext=true","plumbing","2022-04-05 16:20:27.613274"
"Gas & Plumbing","416-806-1280","","","","","","https://www.yellowpages.ca/bus/Ontario/Gas-Plumbing/8111770.html?what=plumbing&where=Toronto+ON&useContext=true","plumbing","2022-04-05 16:20:27.613467"
"P's Plumbing","519-681-9959","","","","","","https://www.yellowpages.ca/bus/Ontario/P-s-Plumbing/6896910.html?what=plumbing&where=Toronto+ON&useContext=true","plumbing","2022-04-05 16:20:27.613658"
"David Plumbing","647-729-6856","","","","","","https://www.yellowpages.ca/bus/Ontario/David-Plumbing/101302316.html?what=plumbing&where=Toronto+ON&useContext=true","plumbing","2022-04-05 16:20:27.613850"
"Faucet Fix","613-812-8397","","","","","","https://www.yellowpages.ca/bus/Ontario/Faucet-Fix/101652213.html?what=plumbing&where=Toronto+ON&useContext=true","plumbing","2022-04-05 16:20:27.614046"
"Apprentice Plumber","613-401-7188","","","","","","https://www.yellowpages.ca/bus/Ontario/Apprentice-Plumber/100956707.html?what=plumbing&where=Toronto+ON&useContext=true","plumbing","2022-04-05 16:20:27.614239"
"VR Plumbing","416-409-4127","","","","","","https://www.yellowpages.ca/bus/Ontario/VR-Plumbing/100959087.html?what=plumbing&where=Toronto+ON&useContext=true","plumbing","2022-04-05 16:20:27.614443"
"Cheap Junk Removal","226-234-0782","","","","","","https://www.yellowpages.ca/bus/Ontario/Cheap-Junk-Removal/101035826.html?what=plumbing&where=Toronto+ON&useContext=true","plumbing","2022-04-05 16:20:27.614636"
"Precision Plumbing","519-722-8112","","","","","","https://www.yellowpages.ca/bus/Ontario/Precision-Plumbing/101113447.html?what=plumbing&where=Toronto+ON&useContext=true","plumbing","2022-04-05 16:20:27.614827"
"RPR Plumbing","613-806-5812","","","","","","https://www.yellowpages.ca/bus/Ontario/RPR-Plumbing/101071373.html?what=plumbing&where=Toronto+ON&useContext=true","plumbing","2022-04-05 16:20:27.615017"
"Joe's Plumbing","416-712-1181","","","","","","https://www.yellowpages.ca/bus/Ontario/Joe-s-Plumbing/101065302.html?what=plumbing&where=Toronto+ON&useContext=true","plumbing","2022-04-05 16:20:27.615208"
"Al's Plumbing","613-795-3956","","","","","","https://www.yellowpages.ca/bus/Ontario/Al-s-Plumbing/101075966.html?what=plumbing&where=Toronto+ON&useContext=true","plumbing","2022-04-05 16:20:27.615398"
"Heating Cooling & Plumbing","416-670-7740","","","","","","https://www.yellowpages.ca/bus/Ontario/Heating-Cooling-Plumbing/100510016.html?what=plumbing&where=Toronto+ON&useContext=true","plumbing","2022-04-05 16:20:27.615588"
"Same Day Plumbing","416-907-8703","","","","","","https://www.yellowpages.ca/bus/Ontario/Same-Day-Plumbing/100541848.html?what=plumbing&where=Toronto+ON&useContext=true","plumbing","2022-04-05 16:20:27.615778"
"Active Plumbing","416-494-7222","","","","","","https://www.yellowpages.ca/bus/Ontario/Active-Plumbing/100826136.html?what=plumbing&where=Toronto+ON&useContext=true","plumbing","2022-04-05 16:20:27.615958"
"Superior Plumbing","613-680-2084","","","","","","https://www.yellowpages.ca/bus/Ontario/Superior-Plumbing/100848848.html?what=plumbing&where=Toronto+ON&useContext=true","plumbing","2022-04-05 16:20:27.616149"
"Adam's Plumbing","905-627-7739
1-888-858-3112","","","","","","https://www.yellowpages.ca/bus/Ontario/Adam-s-Plumbing/100800999.html?what=plumbing&where=Toronto+ON&useContext=true","plumbing","2022-04-05 16:20:27.616344"
"Jeff's Plumbing","519-398-9234","","","","","","https://www.yellowpages.ca/bus/Ontario/Jeff-s-Plumbing/101009450.html?what=plumbing&where=Toronto+ON&useContext=true","plumbing","2022-04-05 16:20:27.616535"
"PHD plumbing","416-453-8366","","","","","","https://www.yellowpages.ca/bus/Ontario/PHD-plumbing/101224432.html?what=plumbing&where=Toronto+ON&useContext=true","plumbing","2022-04-05 16:20:27.616724"
"Absolute Plumbing","647-559-9187","","","","","","https://www.yellowpages.ca/bus/Ontario/Absolute-Plumbing/101195471.html?what=plumbing&where=Toronto+ON&useContext=true","plumbing","2022-04-05 16:20:27.616914"
"Nitrus Plumbing","416-830-9538","","","","","","https://www.yellowpages.ca/bus/Ontario/Nitrus-Plumbing/101022041.html?what=plumbing&where=Toronto+ON&useContext=true","plumbing","2022-04-05 16:20:27.617104"
"Peters Plumbing","705-930-0301","","","","","","https://www.yellowpages.ca/bus/Ontario/Peters-Plumbing/101017461.html?what=plumbing&where=Toronto+ON&useContext=true","plumbing","2022-04-05 16:20:27.617293"
"Joe's Plumbing","416-710-9600","","","","","","https://www.yellowpages.ca/bus/Ontario/Joe-s-Plumbing/101191307.html?what=plumbing&where=Toronto+ON&useContext=true","plumbing","2022-04-05 16:20:27.617482"
"JP Plumbing","289-697-1430","","","","","","https://www.yellowpages.ca/bus/Ontario/JP-Plumbing/101135332.html?what=plumbing&where=Toronto+ON&useContext=true","plumbing","2022-04-05 16:20:27.617671"
"Primo Plumbing","416-802-8621","","","","","","https://www.yellowpages.ca/bus/Ontario/Primo-Plumbing/100390050.html?what=plumbing&where=Toronto+ON&useContext=true","plumbing","2022-04-05 16:20:27.617860"
"Plumbico","416-303-5738","","","","","","https://www.yellowpages.ca/bus/Ontario/Plumbico/100564009.html?what=plumbing&where=Toronto+ON&useContext=true","plumbing","2022-04-05 16:20:27.618053"
"Plumbella","519-465-0397","","","","","","https://www.yellowpages.ca/bus/Ontario/Plumbella/7018032.html?what=plumbing&where=Toronto+ON&useContext=true","plumbing","2022-04-05 16:20:27.618272"
"Plumber+","647-542-1488","","","","","","https://www.yellowpages.ca/bus/Ontario/Plumber/100784538.html?what=plumbing&where=Toronto+ON&useContext=true","plumbing","2022-04-05 16:20:28.653144"
"Plumber99","416-887-2095","","TORONTO","ON","","","https://www.yellowpages.ca/bus/Ontario/TORONTO/Plumber99/101642213.html?what=plumbing&where=Toronto+ON&useContext=true","plumbing","2022-04-05 16:20:28.653369"
"Spardel","416-678-1857","84 Vankoughnet E","Toronto","ON","P0P 1K0","","https://www.yellowpages.ca/bus/Ontario/Toronto/Spardel/6511340.html?what=plumbing&where=Toronto+ON&useContext=true","plumbing","2022-04-05 16:20:28.653606"
"Artery","416-305-9134","95 Coleridge Ave","Toronto","ON","M4C 4H7","","https://www.yellowpages.ca/bus/Ontario/Toronto/Artery/101783420.html?what=plumbing&where=Toronto+ON&useContext=true","plumbing","2022-04-05 16:20:28.653849"
"Fia Plumbing And Heating Ltd","416-237-9354","23-30 Titan Rd","Etobicoke","ON","M8Z 5Y2","","https://www.yellowpages.ca/bus/Ontario/Etobicoke/Fia-Plumbing-And-Heating-Ltd/101431605.html?what=plumbing&where=Toronto+ON&useContext=true","plumbing","2022-04-05 16:20:28.654073"
"Seb","647-557-5588","1315 Silver Spear Rd","Mississauga","ON","L4Y 2W8","","https://www.yellowpages.ca/bus/Ontario/Mississauga/Seb/102361463.html?what=plumbing&where=Toronto+ON&useContext=true","plumbing","2022-04-05 16:20:28.654306"
"Kestral","647-885-6580","5867 Chessman Crt","Mississauga","ON","L5M 6P4","","https://www.yellowpages.ca/bus/Ontario/Mississauga/Kestral/101803714.html?what=plumbing&where=Toronto+ON&useContext=true","plumbing","2022-04-05 16:20:28.654556"
"PlumberGirl","647-668-9855","","","ON","Z6Z 6Z6","","https://www.yellowpages.ca/bus/Ontario/PlumberGirl/100751856.html?what=plumbing&where=Toronto+ON&useContext=true","plumbing","2022-04-05 16:20:28.654772"
"Plumbico","647-693-9938","","","","","","https://www.yellowpages.ca/bus/Ontario/Plumbico/101037273.html?what=plumbing&where=Toronto+ON&useContext=true","plumbing","2022-04-05 16:20:28.654969"
"Kevo","647-559-3625","","","","","","https://www.yellowpages.ca/bus/Ontario/Kevo/100886265.html?what=plumbing&where=Toronto+ON&useContext=true","plumbing","2022-04-05 16:20:28.655167"
"DrainCom","905-238-5844","","","","","","https://www.yellowpages.ca/bus/Ontario/DrainCom/101004747.html?what=plumbing&where=Toronto+ON&useContext=true","plumbing","2022-04-05 16:20:28.655365"
"Mister Plumber","416-939-1530","31 Bloorlea Cres","Etobicoke","ON","M9B 1P2","https://www.yellowpages.ca/gourl/367992c01d36250b027027ee84f3aa9826ba4884?redirect=http%3A%2F%2Fwww.misterplumber.ca%2F","https://www.yellowpages.ca/bus/Ontario/Etobicoke/Mister-Plumber/7892348.html?what=plumbing&where=Toronto+ON&useContext=true","plumbing","2022-04-05 16:20:28.655654"
"Flow Mechanical","416-526-0159","188 Thorndale Rd","Brampton","ON","L6P 3K8","https://www.yellowpages.ca/gourl/7f020b1c5a825eb7e8118d829f86a7fe6806d33a?redirect=http%3A%2F%2Fflowmechanical.ca%2F","https://www.yellowpages.ca/bus/Ontario/Brampton/Flow-Mechanical/7744715.html?what=plumbing&where=Toronto+ON&useContext=true","plumbing","2022-04-05 16:20:28.655911"
"Easy Plumbing","647-893-6042","180-1172 Bay St","Toronto","ON","M5S 2B4","https://www.yellowpages.ca/gourl/66f0427bf3f994fce2dad127f8c55501478bf80d?redirect=http%3A%2F%2Fwww.easyplumbing.ca%2F","https://www.yellowpages.ca/bus/Ontario/Toronto/Easy-Plumbing/100943860.html?what=plumbing&where=Toronto+ON&useContext=true","plumbing","2022-04-05 16:20:28.656169"
"Bradshaw Plumbing","416-286-7511","12 Old Kingston Rd","Scarborough","ON","M1E 3J5","https://www.yellowpages.ca/gourl/b29d2e53ca73277a075dc8ac8d40b6c7ac73afe5?redirect=https%3A%2F%2Fwww.bradshawplumbing.com%2F","https://www.yellowpages.ca/bus/Ontario/Scarborough/Bradshaw-Plumbing/2136645.html?what=plumbing&where=Toronto+ON&useContext=true","plumbing","2022-04-05 16:20:28.656452"
"JM Plumbing","416-712-9547","326 Oakwood Court","Newmarket","ON","L3Y 3C8","https://www.yellowpages.ca/gourl/ac5ec04849871bd6bab07d774a51b8f48d4d0760?redirect=http%3A%2F%2Fwww.jmplumbing.ca%2F","https://www.yellowpages.ca/bus/Ontario/Newmarket/JM-Plumbing/101655717.html?what=plumbing&where=Toronto+ON&useContext=true","plumbing","2022-04-05 16:20:28.656712"
"TMK Mechanical","705-331-8653","","","","","javascript:void(0);","https://www.yellowpages.ca/bus/Ontario/TMK-Mechanical/100418969.html?what=plumbing&where=Toronto+ON&useContext=true","plumbing","2022-04-05 16:20:28.656937"
"Vis Plumbing","647-622-5402","","Mississauga","ON","","","https://www.yellowpages.ca/bus/Ontario/Mississauga/Vis-Plumbing/101708631.html?what=plumbing&where=Toronto+ON&useContext=true","plumbing","2022-04-05 16:20:28.657169"
"McDowall Plumbing","647-857-9253","222 Touchstone Dr","Toronto","ON","M6M 5J7","https://www.yellowpages.ca/gourl/fc38ea09adcd48cf2422e6ace51e9bce34bf3981?redirect=https%3A%2F%2Fwww.facebook.com%2FMcDowallPlumbing%2F","https://www.yellowpages.ca/bus/Ontario/Toronto/McDowall-Plumbing/101268516.html?what=plumbing&where=Toronto+ON&useContext=true","plumbing","2022-04-05 16:20:28.657424"
"Artisan Plumbing","416-473-4410","","","","","javascript:void(0);","https://www.yellowpages.ca/bus/Ontario/Artisan-Plumbing/100458867.html?what=plumbing&where=Toronto+ON&useContext=true","plumbing","2022-04-05 16:20:28.657651"
"TJ Plumbing","416-712-9111","","Toronto","ON","M6M 4B8","javascript:void(0);","https://www.yellowpages.ca/bus/Ontario/Toronto/TJ-Plumbing/6541583.html?what=plumbing&where=Toronto+ON&useContext=true","plumbing","2022-04-05 16:20:28.657928"
"Blackburn Plumbing","647-321-1946","11 Ivybridge Dr","Brampton","ON","L6V 2X1","https://www.yellowpages.ca/gourl/c8024928edd65c071bd15ac051d71d5486568df7?redirect=http%3A%2F%2Fwww.facebook.com%2F150166568965600","https://www.yellowpages.ca/bus/Ontario/Brampton/Blackburn-Plumbing/8232136.html?what=plumbing&where=Toronto+ON&useContext=true","plumbing","2022-04-05 16:20:28.658204"
"Plumbtastic Plumbers","416-489-1000","111 Chatsworth Dr","Toronto","ON","M4R 1R8","https://www.yellowpages.ca/gourl/ca8ea9c133741ee6aaa266ae1a90ceee93a715be?redirect=http%3A%2F%2Fwww.facebook.com%2F1504865739636036","https://www.yellowpages.ca/bus/Ontario/Toronto/Plumbtastic-Plumbers/101711988.html?what=plumbing&where=Toronto+ON&useContext=true","plumbing","2022-04-05 16:20:28.658496"
"ExpressRooter Plumbing","416-760-7656","269 Richmond St W","Toronto","ON","M5V 1X1","https://www.yellowpages.ca/gourl/5ce717d5be57b3bf19d8a4f5d444bff5d8ae6ef8?redirect=http%3A%2F%2Fexpressrooter.com%2F","https://www.yellowpages.ca/bus/Ontario/Toronto/ExpressRooter-Plumbing/3768576.html?what=plumbing&where=Toronto+ON&useContext=true","plumbing","2022-04-05 16:20:28.658743"
"Hill Supplies","416-409-7721","157 Crosby Ave","Richmond Hill","ON","L4C 2R3","https://www.yellowpages.ca/gourl/015300f89a59ff68a454d52a4d527006e729d345?redirect=http%3A%2F%2Fwww.hillsupplies.com%2F","https://www.yellowpages.ca/bus/Ontario/Richmond-Hill/Hill-Supplies/774594.html?what=plumbing&where=Toronto+ON&useContext=true","plumbing","2022-04-05 16:20:28.659000"
"ACE Plumbing","613-559-1996","","","","","","https://www.yellowpages.ca/bus/Ontario/ACE-Plumbing/101495993.html?what=plumbing&where=Toronto+ON&useContext=true","plumbing","2022-04-05 16:20:28.659215"
"YYZ Plumbing","416-633-3232","153 Bridgeland Ave","North York","ON","M6A 2Y6","https://www.yellowpages.ca/gourl/0d974920b6febec163dc01bacc7f8549515f0096?redirect=http%3A%2F%2Fwww.yyzplumbing.com%2F","https://www.yellowpages.ca/bus/Ontario/North-York/YYZ-Plumbing/6461780.html?what=plumbing&where=Toronto+ON&useContext=true","plumbing","2022-04-05 16:20:28.659484"
"Arico Plumbing","416-320-8380","100 Arbors Lane","Woodbridge","ON","L4L 7G4","javascript:void(0);","https://www.yellowpages.ca/bus/Ontario/Woodbridge/Arico-Plumbing/101221410.html?what=plumbing&where=Toronto+ON&useContext=true","plumbing","2022-04-05 16:20:28.659803"
"Draincity Inc","416-749-1800","27 Coronet Rd","Etobicoke","ON","M8Z 2L8","https://www.yellowpages.ca/gourl/d1b8d5f7e4ad86ed15710b1e867dd8854f148ae2?redirect=http%3A%2F%2Fdraincity.com%2F","https://www.yellowpages.ca/bus/Ontario/Etobicoke/Draincity-Inc/6116070.html?what=plumbing&where=Toronto+ON&useContext=true","plumbing","2022-04-05 16:20:28.660121"
"Goodguy Plumbing","416-995-2855","36 Pemican Crt","North York","ON","M2M 2Z3","https://www.yellowpages.ca/gourl/d22bb4eec1ea3e08876a3778dffbd624b55f34c7?redirect=http%3A%2F%2Fwww.facebook.com%2F1700772696836990","https://www.yellowpages.ca/bus/Ontario/North-York/Goodguy-Plumbing/7206723.html?what=plumbing&where=Toronto+ON&useContext=true","plumbing","2022-04-05 16:20:28.660397"
"Simi Plumming","647-225-3896","112 Patrice Cres","Thornhill","ON","L4J 4Z4","https://www.yellowpages.ca/gourl/5233883261468a16c4e58c5b35c0a26c53ce57c6?redirect=http%3A%2F%2Fwww.facebook.com%2F1766257543607086","https://www.yellowpages.ca/bus/Ontario/Thornhill/Simi-Plumming/6299115.html?what=plumbing&where=Toronto+ON&useContext=true","plumbing","2022-04-05 16:20:28.660680"
"Magic Plumbing","647-988-5754","","","","","","https://www.yellowpages.ca/bus/Ontario/Magic-Plumbing/100524446.html?what=plumbing&where=Toronto+ON&useContext=true","plumbing","2022-04-05 16:20:28.660913"
"Public Plumbing","416-752-5959","","","","","","https://www.yellowpages.ca/bus/Ontario/Public-Plumbing/8211064.html?what=plumbing&where=Toronto+ON&useContext=true","plumbing","2022-04-05 16:20:28.661119"
"MCS Plumbing","647-518-7543","2-24795 Woodbine Ave","Keswick","ON","L4P 3E9","https://www.yellowpages.ca/gourl/7332bc5bfbf9b8dc544603054cbc70b3d8e78b93?redirect=https%3A%2F%2Fmcsplumbing.ca%2F","https://www.yellowpages.ca/bus/Ontario/Keswick/MCS-Plumbing/101850493.html?what=plumbing&where=Toronto+ON&useContext=true","plumbing","2022-04-05 16:20:28.661393"
"Deep Plumbing","416-312-2415","","","","","","https://www.yellowpages.ca/bus/Ontario/Deep-Plumbing/102171332.html?what=plumbing&where=Toronto+ON&useContext=true","plumbing","2022-04-05 16:20:28.661637"
"San-Del Plumbing","416-876-8700","Ontario","","ON","","","https://www.yellowpages.ca/bus/Ontario/San-Del-Plumbing/8176548.html?what=plumbing&where=Toronto+ON&useContext=true","plumbing","2022-04-05 16:20:29.550546"
"Zam Plumbing","647-461-4252","29 Machockie Rd","East York","ON","M4C 3M5","https://www.yellowpages.ca/gourl/bc8af713ddcdea3cb64d9a4390b7cb80ae287320?redirect=http%3A%2F%2Fwww.facebook.com%2F1065050366889928","https://www.yellowpages.ca/bus/Ontario/East-York/Zam-Plumbing/100342999.html?what=plumbing&where=Toronto+ON&useContext=true","plumbing","2022-04-05 16:20:29.550800"
"DrainRooter Plumbing","416-477-4755","263 Bering Ave","Etobicoke","ON","M8Z 3A5","https://www.yellowpages.ca/gourl/a16441c476619fef6053a123b6089aaba69fe96b?redirect=https%3A%2F%2Fwww.drainrooterplumbing.ca%2F","https://www.yellowpages.ca/bus/Ontario/Etobicoke/DrainRooter-Plumbing/7225379.html?what=plumbing&where=Toronto+ON&useContext=true","plumbing","2022-04-05 16:20:29.551066"
"Osmaks Inc","416-663-4777","9 Renoak Dr","North York","ON","M2R 3E1","https://www.yellowpages.ca/gourl/43eaefa1f1eb459c4b88b23d030f63a9b4c7bde7?redirect=http%3A%2F%2Fwww.osmaks.com%2F","https://www.yellowpages.ca/bus/Ontario/North-York/Osmaks-Inc/2735167.html?what=plumbing&where=Toronto+ON&useContext=true","plumbing","2022-04-05 16:20:29.551322"
"Hmm Distributors","416-398-7113","384 Canarctic Dr","North York","ON","M3J 2V3","https://www.yellowpages.ca/gourl/78be19af9173fa4be776c67e621909f3f9c09f3b?redirect=http%3A%2F%2Fwww.hmmdistributors.com%2F","https://www.yellowpages.ca/bus/Ontario/North-York/Hmm-Distributors/3885808.html?what=plumbing&where=Toronto+ON&useContext=true","plumbing","2022-04-05 16:20:29.551581"
"Drain Relief","416-908-2892","","","","","javascript:void(0);","https://www.yellowpages.ca/bus/Ontario/Drain-Relief/6586612.html?what=plumbing&where=Toronto+ON&useContext=true","plumbing","2022-04-05 16:20:29.551806"
"Matlock Plumbing","905-914-0280","","","","","","https://www.yellowpages.ca/bus/Ontario/Matlock-Plumbing/6102925.html?what=plumbing&where=Toronto+ON&useContext=true","plumbing","2022-04-05 16:20:29.552022"
"VT Plumbing","905-243-4606","","","","","javascript:void(0);","https://www.yellowpages.ca/bus/Ontario/VT-Plumbing/101206374.html?what=plumbing&where=Toronto+ON&useContext=true","plumbing","2022-04-05 16:20:29.552244"
"KH Contractor","416-779-9415","","","","","","https://www.yellowpages.ca/bus/Ontario/KH-Contractor/7185553.html?what=plumbing&where=Toronto+ON&useContext=true","plumbing","2022-04-05 16:20:29.552480"
"Drain Plus","647-785-5646","","","ON","M2E 1E4","","https://www.yellowpages.ca/bus/Ontario/Drain-Plus/101292978.html?what=plumbing&where=Toronto+ON&useContext=true","plumbing","2022-04-05 16:20:29.552712"
"Ava Plumbing","416-877-5553","45 Oakmount Rd Intcm","Toronto","ON","M6P 2M4","https://www.yellowpages.ca/gourl/358b5f51b17b5f19aff3dacdd74d13b9eb9d8243?redirect=http%3A%2F%2Fwww.facebook.com%2F315625962253024","https://www.yellowpages.ca/bus/Ontario/Toronto/Ava-Plumbing/4430355.html?what=plumbing&where=Toronto+ON&useContext=true","plumbing","2022-04-05 16:20:29.552954"
"M&T Plumbing","647-439-9571","10A Dell Park Ave","North York","ON","M6B 2T4","https://www.yellowpages.ca/gourl/55803cb6289c86ec72b51a60e898c6696955fb4e?redirect=http%3A%2F%2Fmtplumbing.ca%2F","https://www.yellowpages.ca/bus/Ontario/North-York/M-T-Plumbing/7602693.html?what=plumbing&where=Toronto+ON&useContext=true","plumbing","2022-04-05 16:20:29.553208"
"Silvan Mechanical","416-530-7818","130 Industry St","North York","ON","M6M 5G3","https://www.yellowpages.ca/gourl/b047fa544f1d5b172d52acff4ed20be16884fa0c?redirect=http%3A%2F%2Fsilvanmechanical.com%2F","https://www.yellowpages.ca/bus/Ontario/North-York/Silvan-Mechanical/6450913.html?what=plumbing&where=Toronto+ON&useContext=true","plumbing","2022-04-05 16:20:29.553464"
"Proserv Plumbing","416-236-5373","5174 Dundas St W","Etobicoke","ON","M9A 1C4","https://www.yellowpages.ca/gourl/eb3fdd2772a383d935e339577203fa69d34477be?redirect=http%3A%2F%2Fproservplumbing.com%2F","https://www.yellowpages.ca/bus/Ontario/Etobicoke/Proserv-Plumbing/3348039.html?what=plumbing&where=Toronto+ON&useContext=true","plumbing","2022-04-05 16:20:29.553720"
"Jam Plumbing","416-398-1615","5-40 Kodiak Cres","North York","ON","M3J 3G5","https://www.yellowpages.ca/gourl/cfdbe1c79bba97f190a16f6a319839bea7a8b19e?redirect=http%3A%2F%2Fwww.jamplumbing.ca%2F","https://www.yellowpages.ca/bus/Ontario/North-York/Jam-Plumbing/100199321.html?what=plumbing&where=Toronto+ON&useContext=true","plumbing","2022-04-05 16:20:29.553970"
"Applewood Plumbing","647-688-9729","4238 Garnetwood Chase","Mississauga","ON","L4W 2G9","https://www.yellowpages.ca/gourl/f65daaf50e64bdf10061dba97979154dc3c2ebe2?redirect=http%3A%2F%2Fwww.facebook.com%2F210550622655164","https://www.yellowpages.ca/bus/Ontario/Mississauga/Applewood-Plumbing/7717472.html?what=plumbing&where=Toronto+ON&useContext=true","plumbing","2022-04-05 16:20:29.554227"
"Caldwell Plumbing","416-574-4770","","","","","","https://www.yellowpages.ca/bus/Ontario/Caldwell-Plumbing/7183836.html?what=plumbing&where=Toronto+ON&useContext=true","plumbing","2022-04-05 16:20:29.554460"
"Prut Plumbing","416-477-0407","","","","","","https://www.yellowpages.ca/bus/Ontario/Prut-Plumbing/8023821.html?what=plumbing&where=Toronto+ON&useContext=true","plumbing","2022-04-05 16:20:29.554684"
"J&P Plumbing","416-994-2535","","Oakville","ON","L6M 2B3","javascript:void(0);","https://www.yellowpages.ca/bus/Ontario/Oakville/J-P-Plumbing/8175864.html?what=plumbing&where=Toronto+ON&useContext=true","plumbing","2022-04-05 16:20:29.554924"
"Jtp Plumbing","647-308-6005","","","","","","https://www.yellowpages.ca/bus/Ontario/Jtp-Plumbing/8132062.html?what=plumbing&where=Toronto+ON&useContext=true","plumbing","2022-04-05 16:20:29.555149"
"B&B Plumbing","647-700-7739","","","","","","https://www.yellowpages.ca/bus/Ontario/B-B-Plumbing/101029956.html?what=plumbing&where=Toronto+ON&useContext=true","plumbing","2022-04-05 16:20:29.555365"
"Aquamaster Plumbing","416-901-4562","247-371 Front St W","Toronto","ON","M5V 3S8","https://www.yellowpages.ca/gourl/4793ef969fa090c37804e693115a380d46e874b3?redirect=https%3A%2F%2Fwww.facebook.com%2Fpages%2FAquamaster-Drain-Plumbing-Waterproofing-Inc%2F391155397671075","https://www.yellowpages.ca/bus/Ontario/Toronto/Aquamaster-Plumbing/100305804.html?what=plumbing&where=Toronto+ON&useContext=true","plumbing","2022-04-05 16:20:29.555639"
"Tyco Plumbing","647-632-6919","109 Lucena Cres","Maple","ON","L6A 2W5","https://www.yellowpages.ca/gourl/5939b78dbef0079a8fe7084fca2b98c89276a152?redirect=http%3A%2F%2Fwww.Facebook.com%2Ftycoplumbing01","https://www.yellowpages.ca/bus/Ontario/Maple/Tyco-Plumbing/101248748.html?what=plumbing&where=Toronto+ON&useContext=true","plumbing","2022-04-05 16:20:29.555897"
"Denos Plumbing","416-209-5644","","","","","","https://www.yellowpages.ca/bus/Ontario/Denos-Plumbing/5355772.html?what=plumbing&where=Toronto+ON&useContext=true","plumbing","2022-04-05 16:20:29.556119"
"Sherlock Homes","647-869-2642","","Toronto","ON","M6K 3B8","","https://www.yellowpages.ca/bus/Ontario/Toronto/Sherlock-Homes/100808443.html?what=plumbing&where=Toronto+ON&useContext=true","plumbing","2022-04-05 16:20:29.556360"
"GP Mechanical","416-990-8880","80 Colville Rd","North York","ON","M6M 2Y4","","https://www.yellowpages.ca/bus/Ontario/North-York/GP-Mechanical/6560991.html?what=plumbing&where=Toronto+ON&useContext=true","plumbing","2022-04-05 16:20:29.556605"
"Sentinel Plumbing","416-235-0704","28 Milford Ave","North York","ON","M6M 2V8","","https://www.yellowpages.ca/bus/Ontario/North-York/Sentinel-Plumbing/1426286.html?what=plumbing&where=Toronto+ON&useContext=true","plumbing","2022-04-05 16:20:29.556855"
"Golden Plumbing","647-956-9223","1145 Brock St S","Whitby","ON","L1N 4M1","javascript:void(0);","https://www.yellowpages.ca/bus/Ontario/Whitby/Golden-Plumbing/100851505.html?what=plumbing&where=Toronto+ON&useContext=true","plumbing","2022-04-05 16:20:29.557120"
"DrainConstractors Direct","416-818-5622","","","","","","https://www.yellowpages.ca/bus/Ontario/DrainConstractors-Direct/8240263.html?what=plumbing&where=Toronto+ON&useContext=true","plumbing","2022-04-05 16:20:29.557329"
"Citti Plumber","647-741-9990","","Mississauga","ON","L4W 1K8","","https://www.yellowpages.ca/bus/Ontario/Mississauga/Citti-Plumber/101099451.html?what=plumbing&where=Toronto+ON&useContext=true","plumbing","2022-04-05 16:20:29.557573"
"Reliance Plumbing","647-828-2793","","","","","","https://www.yellowpages.ca/bus/Ontario/Reliance-Plumbing/101138102.html?what=plumbing&where=Toronto+ON&useContext=true","plumbing","2022-04-05 16:20:29.557791"
"Ruber Plumbling","905-386-0812","","","","","","https://www.yellowpages.ca/bus/Ontario/Ruber-Plumbling/100862480.html?what=plumbing&where=Toronto+ON&useContext=true","plumbing","2022-04-05 16:20:29.558010"
"Favorite Plumbing","416-832-3255","1905-511 The West Mall","Etobicoke","ON","M9C 1G5","https://www.yellowpages.ca/gourl/cc11dafc3df6516b279d791dc732fa41939739ac?redirect=http%3A%2F%2Ffavoriteplumbing.ca%2F","https://www.yellowpages.ca/bus/Ontario/Etobicoke/Favorite-Plumbing/100495471.html?what=plumbing&where=Toronto+ON&useContext=true","plumbing","2022-04-05 16:20:29.558295"
"Prime Mechanical","416-466-6923","938 Queen St E","Toronto","ON","M4M 1J7","https://www.yellowpages.ca/gourl/2d222f84cf09a4f8699fe104d576be06f8a30ec7?redirect=https%3A%2F%2Fwww.facebook.com%2FPrime-Mechanical-Co-1549566202009957%2F","https://www.yellowpages.ca/bus/Ontario/Toronto/Prime-Mechanical/1266310.html?what=plumbing&where=Toronto+ON&useContext=true","plumbing","2022-04-05 16:20:29.558562"
"Christopher Plumbing","416-766-9477","2911 Dundas St W","Toronto","ON","M6P 1Z1","https://www.yellowpages.ca/gourl/3829e864cb6ac0bcddd03d8fc261c87be42cb1e0?redirect=http%3A%2F%2Fchristophersplumbing.com%2F","https://www.yellowpages.ca/bus/Ontario/Toronto/Christopher-Plumbing/2180780.html?what=plumbing&where=Toronto+ON&useContext=true","plumbing","2022-04-05 16:20:29.558817"
"Croteck Plumbing","416-991-4024","","","","","","https://www.yellowpages.ca/bus/Ontario/Croteck-Plumbing/7960684.html?what=plumbing&where=Toronto+ON&useContext=true","plumbing","2022-04-05 16:20:30.486926"
"Toram Mechanical","416-255-5775","","","","","","https://www.yellowpages.ca/bus/Ontario/Toram-Mechanical/7768654.html?what=plumbing&where=Toronto+ON&useContext=true","plumbing","2022-04-05 16:20:30.487147"
"Flowmaster Plumbing","416-770-6587","","TORONTO","ON","","","https://www.yellowpages.ca/bus/Ontario/TORONTO/Flowmaster-Plumbing/100540325.html?what=plumbing&where=Toronto+ON&useContext=true","plumbing","2022-04-05 16:20:30.487371"
"Natphil Inc","416-679-1477","151 Carlingview Dr","Etobicoke","ON","M9W 5S4","","https://www.yellowpages.ca/bus/Ontario/Etobicoke/Natphil-Inc/2428019.html?what=plumbing&where=Toronto+ON&useContext=true","plumbing","2022-04-05 16:20:30.487629"
"Way Plumbing","416-364-8584","314 Queen St E","Toronto","ON","M5A 1S8","","https://www.yellowpages.ca/bus/Ontario/Toronto/Way-Plumbing/1693707.html?what=plumbing&where=Toronto+ON&useContext=true","plumbing","2022-04-05 16:20:30.487880"
"Riverdale Plumbing","416-466-9504","41 Research Rd","East York","ON","M4G 2G8","","https://www.yellowpages.ca/bus/Ontario/East-York/Riverdale-Plumbing/1343918.html?what=plumbing&where=Toronto+ON&useContext=true","plumbing","2022-04-05 16:20:30.488119"
"ATM Plumbing","416-688-4786","","","","","","https://www.yellowpages.ca/bus/Ontario/ATM-Plumbing/4055995.html?what=plumbing&where=Toronto+ON&useContext=true","plumbing","2022-04-05 16:20:30.488317"
"Direct Plumbing","416-450-9886","","","","","","https://www.yellowpages.ca/bus/Ontario/Direct-Plumbing/7242113.html?what=plumbing&where=Toronto+ON&useContext=true","plumbing","2022-04-05 16:20:30.488514"
"Flash Drains","905-537-9514","","","","","","https://www.yellowpages.ca/bus/Ontario/Flash-Drains/6108070.html?what=plumbing&where=Toronto+ON&useContext=true","plumbing","2022-04-05 16:20:30.488710"
"Whitfield Plumbing","905-933-6070","","","","","","https://www.yellowpages.ca/bus/Ontario/Whitfield-Plumbing/7026214.html?what=plumbing&where=Toronto+ON&useContext=true","plumbing","2022-04-05 16:20:30.488933"
"Plumbing Planet","647-933-2131","","Toronto","ON","M2M 3S3","javascript:void(0);","https://www.yellowpages.ca/bus/Ontario/Toronto/Plumbing-Planet/101917028.html?what=plumbing&where=Toronto+ON&useContext=true","plumbing","2022-04-05 16:20:30.489160"
"MJM Plumbing","416-873-6999","1 Coalport Dr","Toronto","ON","M1N 4B5","https://www.yellowpages.ca/gourl/3d0ba3b231561908f9ecd7c3f42d26ebb8f6161a?redirect=http%3A%2F%2Fwww.facebook.com%2F162082554545166","https://www.yellowpages.ca/bus/Ontario/Toronto/MJM-Plumbing/6780217.html?what=plumbing&where=Toronto+ON&useContext=true","plumbing","2022-04-05 16:20:30.489395"
"Drain Detectives","416-454-0145","27 Merritt Rd","East York","ON","M4B 3K4","https://www.yellowpages.ca/gourl/553708e2668a8a30715a5a6b27612ed1099b77e8?redirect=http%3A%2F%2Fwww.facebook.com%2F621538161370122","https://www.yellowpages.ca/bus/Ontario/East-York/Drain-Detectives/4132991.html?what=plumbing&where=Toronto+ON&useContext=true","plumbing","2022-04-05 16:20:30.489633"
"Rapha Care","416-738-6624","1007-3300 Don Mills Rd","Toronto","ON","M2J 4X7","https://www.yellowpages.ca/gourl/1cf7cc7b2fe3c28b95eef469d3f651581f2fed41?redirect=http%3A%2F%2Fwww.raphacare.ca%2F","https://www.yellowpages.ca/bus/Ontario/Toronto/Rapha-Care/100194428.html?what=plumbing&where=Toronto+ON&useContext=true","plumbing","2022-04-05 16:20:30.489884"
"Plumbing Smart","416-493-8625","73 Pettibone Sq","Toronto","ON","M1W 2J1","https://www.yellowpages.ca/gourl/99c992361d52a9a45d0e5c9b8adc9b2ea947b1d1?redirect=http%3A%2F%2Fsmartplumbing.ca%2F","https://www.yellowpages.ca/bus/Ontario/Toronto/Plumbing-Smart/6775405.html?what=plumbing&where=Toronto+ON&useContext=true","plumbing","2022-04-05 16:20:30.490134"
"Sprint Mechanical","416-747-6059
1-888-600-7995","50 Woodbine Downs Blvd","Etobicoke","ON","M9W 5R2","https://www.yellowpages.ca/gourl/0e7dac79748555e8e2c960ad37f09859401a6ab2?redirect=http%3A%2F%2Fsprintinsight.com%2F","https://www.yellowpages.ca/bus/Ontario/Etobicoke/Sprint-Mechanical/1841160.html?what=plumbing&where=Toronto+ON&useContext=true","plumbing","2022-04-05 16:20:30.490383"
"GTA-Drainsolutions","647-213-0633","3771 Arbourview Terr","Mississauga","ON","L5M 7A8","https://www.yellowpages.ca/gourl/ee0be15d944f6391715c83338bcdd2d1efb8a639?redirect=http%3A%2F%2Fgtadrainsolutions.com%2F","https://www.yellowpages.ca/bus/Ontario/Mississauga/GTA-Drainsolutions/8181162.html?what=plumbing&where=Toronto+ON&useContext=true","plumbing","2022-04-05 16:20:30.490625"
"Crme Inc","416-844-9484","220 Casimir St","Port Perry","ON","L9L 1B7","https://www.yellowpages.ca/gourl/3d22c2f91667ee7bc4216a5829e4721ccc20213e?redirect=http%3A%2F%2Fwww.facebook.com%2F528953644149056","https://www.yellowpages.ca/bus/Ontario/Port-Perry/Crme-Inc/102212473.html?what=plumbing&where=Toronto+ON&useContext=true","plumbing","2022-04-05 16:20:30.490861"
"Dipietro Plumbing","416-892-0148","","","","","","https://www.yellowpages.ca/bus/Ontario/Dipietro-Plumbing/4000133.html?what=plumbing&where=Toronto+ON&useContext=true","plumbing","2022-04-05 16:20:30.491074"
"Waterworkscanada.com","416-638-8496","","","","","","https://www.yellowpages.ca/bus/Ontario/Waterworkscanada-com/2983028.html?what=plumbing&where=Toronto+ON&useContext=true","plumbing","2022-04-05 16:20:30.491268"
"Drain Alert","416-409-2237","","","","","","https://www.yellowpages.ca/bus/Ontario/Drain-Alert/4122916.html?what=plumbing&where=Toronto+ON&useContext=true","plumbing","2022-04-05 16:20:30.491461"
"Pir Plumbing","416-795-4551","","","","","","https://www.yellowpages.ca/bus/Ontario/Pir-Plumbing/8023658.html?what=plumbing&where=Toronto+ON&useContext=true","plumbing","2022-04-05 16:20:30.491654"
"Delex Plumbing","416-910-2550","","","","","","https://www.yellowpages.ca/bus/Ontario/Delex-Plumbing/8029492.html?what=plumbing&where=Toronto+ON&useContext=true","plumbing","2022-04-05 16:20:30.491857"
"Sierra Plumbing","519-820-6957","","","","","","https://www.yellowpages.ca/bus/Ontario/Sierra-Plumbing/8121229.html?what=plumbing&where=Toronto+ON&useContext=true","plumbing","2022-04-05 16:20:30.492048"
"Service Plumber","705-441-0931","","","","","","https://www.yellowpages.ca/bus/Ontario/Service-Plumber/7019950.html?what=plumbing&where=Toronto+ON&useContext=true","plumbing","2022-04-05 16:20:30.492252"
"Pioneer Plumbing","705-787-6020","","","","","","https://www.yellowpages.ca/bus/Ontario/Pioneer-Plumbing/7020213.html?what=plumbing&where=Toronto+ON&useContext=true","plumbing","2022-04-05 16:20:30.492452"
"Adrian Plumbing","416-880-1029","","","","","","https://www.yellowpages.ca/bus/Ontario/Adrian-Plumbing/100027123.html?what=plumbing&where=Toronto+ON&useContext=true","plumbing","2022-04-05 16:20:30.492636"
"AJ Plumbing","613-332-6342","","","","","","https://www.yellowpages.ca/bus/Ontario/AJ-Plumbing/8178538.html?what=plumbing&where=Toronto+ON&useContext=true","plumbing","2022-04-05 16:20:30.492838"
"Maple Plumbing","416-726-1124","3062 Dundas St W","Toronto","ON","M6P 1Z7","","https://www.yellowpages.ca/bus/Ontario/Toronto/Maple-Plumbing/2393421.html?what=plumbing&where=Toronto+ON&useContext=true","plumbing","2022-04-05 16:20:30.493071"
"Overall Plumbing","416-884-2483","80 Greenbrae Circt","Scarborough","ON","M1H 1R3","https://www.yellowpages.ca/gourl/db4bcd3b74bfd6652ade66e9f96f14190ab001f0?redirect=http%3A%2F%2Foverallplumbing.com%2F","https://www.yellowpages.ca/bus/Ontario/Scarborough/Overall-Plumbing/100444005.html?what=plumbing&where=Toronto+ON&useContext=true","plumbing","2022-04-05 16:20:30.493314"
"Prompt Plumbing","416-888-9244","","","","","","https://www.yellowpages.ca/bus/Ontario/Prompt-Plumbing/4111184.html?what=plumbing&where=Toronto+ON&useContext=true","plumbing","2022-04-05 16:20:30.493534"
"Crescentown Plumbing","416-984-2785","7 Glamorgan Crt","Markham","ON","L3R 7V7","","https://www.yellowpages.ca/bus/Ontario/Markham/Crescentown-Plumbing/7608213.html?what=plumbing&where=Toronto+ON&useContext=true","plumbing","2022-04-05 16:20:30.493771"
"Sam Plumbing","416-930-2830","41 Shaftsbury Ave","Richmond Hill","ON","L4B 4R8","","https://www.yellowpages.ca/bus/Ontario/Richmond-Hill/Sam-Plumbing/100303603.html?what=plumbing&where=Toronto+ON&useContext=true","plumbing","2022-04-05 16:20:30.494027"
"Twins Plumbing","416-258-3699","","","","","","https://www.yellowpages.ca/bus/Ontario/Twins-Plumbing/5953373.html?what=plumbing&where=Toronto+ON&useContext=true","plumbing","2022-04-05 16:20:30.494246"
"ABS Mechanical","416-787-8615","660 Eglinton Ave W","Toronto","ON","M5N 1C3","https://www.yellowpages.ca/gourl/51f8700a1f072d277eb296a8cae4644892dc550b?redirect=http%3A%2F%2Fwww.facebook.com%2F194488240935851","https://www.yellowpages.ca/bus/Ontario/Toronto/ABS-Mechanical/27699.html?what=plumbing&where=Toronto+ON&useContext=true","plumbing","2022-04-05 16:20:30.494486"
"European Plumbing","416-268-7825","335 Lawrence Ave W","North York","ON","M5M 1B5","https://www.yellowpages.ca/gourl/4d0dfbc6189c1f27d29ecc95b77124ec0f1c923c?redirect=http%3A%2F%2Fwww.facebook.com%2F1726594897416218","https://www.yellowpages.ca/bus/Ontario/North-York/European-Plumbing/101052265.html?what=plumbing&where=Toronto+ON&useContext=true","plumbing","2022-04-05 16:20:31.422396"
"Kainos Plumbing","647-921-9169","5-90 Northline Rd","Toronto","ON","M4B 3E5","https://www.yellowpages.ca/gourl/afa9b28015f68854869a31f89cc3072142ac81ec?redirect=https%3A%2F%2Fwww.facebook.com%2FKainos-Plumbing-and-Heating-195817837265172%2F","https://www.yellowpages.ca/bus/Ontario/Toronto/Kainos-Plumbing/101925293.html?what=plumbing&where=Toronto+ON&useContext=true","plumbing","2022-04-05 16:20:31.422648"
"Aquatek Plumbing","416-407-1471","1547 Kingston Rd","Scarborough","ON","M1N 1R9","https://www.yellowpages.ca/gourl/7c4c483e41ce9248ae377825f1c5408b858c1973?redirect=http%3A%2F%2Fwww.facebook.com%2F207031119676600","https://www.yellowpages.ca/bus/Ontario/Scarborough/Aquatek-Plumbing/7162674.html?what=plumbing&where=Toronto+ON&useContext=true","plumbing","2022-04-05 16:20:31.422888"
"Maple Roots","647-836-7930","35 Cedarcroft Blvd","North York","ON","M2R 2Z4","https://www.yellowpages.ca/gourl/bfed7ae8ea32679503361cd3f5797e7bd9b73be8?redirect=http%3A%2F%2Fwww.facebook.com%2F1791225101193978","https://www.yellowpages.ca/bus/Ontario/North-York/Maple-Roots/6651612.html?what=plumbing&where=Toronto+ON&useContext=true","plumbing","2022-04-05 16:20:31.423131"
"Direct Service","416-932-0677","601 Magnetic Dr","North York","ON","M3J 3J2","https://www.yellowpages.ca/gourl/71799431b8eb2a31618eb00b9f77ed42a754133b?redirect=https%3A%2F%2Fwww.facebook.com%2FDirect-Service-226618110694903%2F","https://www.yellowpages.ca/bus/Ontario/North-York/Direct-Service/7135380.html?what=plumbing&where=Toronto+ON&useContext=true","plumbing","2022-04-05 16:20:31.423368"
"Dwarka Plumbing","416-438-9393","149 Nelson St","Scarborough","ON","M1J 3J8","https://www.yellowpages.ca/gourl/0d461a9dbe20f40026d6f0eb2d6cb970f28105b0?redirect=http%3A%2F%2Fwww.facebook.com%2F106074273131139","https://www.yellowpages.ca/bus/Ontario/Scarborough/Dwarka-Plumbing/100400220.html?what=plumbing&where=Toronto+ON&useContext=true","plumbing","2022-04-05 16:20:31.423605"
"Tansons Ltd.","416-725-2665","3 Lagos Rd","Etobicoke","ON","M9W 4E3","https://www.yellowpages.ca/gourl/2b600f40b1ce6ff802dcf5c49487262a69894901?redirect=http%3A%2F%2Fwww.facebook.com%2F42775","https://www.yellowpages.ca/bus/Ontario/Etobicoke/Tansons-Ltd/101784617.html?what=plumbing&where=Toronto+ON&useContext=true","plumbing","2022-04-05 16:20:31.423841"
"Aqualux Draining and Plumbing","416-951-0777","380 Janene Crt.","Mississauga","ON","L5A 3Z3","https://www.yellowpages.ca/gourl/6ff7007005d1e352f7f1b744348cd9225cb893ad?redirect=https%3A%2F%2Faqualuxdp.ca%2F","https://www.yellowpages.ca/bus/Ontario/Mississauga/Aqualux-Draining-and-Plumbing/8083724.html?what=plumbing&where=Toronto+ON&useContext=true","plumbing","2022-04-05 16:20:31.424077"
"Kin&Fit Bootcamp","647-771-1827","27 Drinkwater Rd","Brampton","ON","L6Y 4T6","https://www.yellowpages.ca/gourl/2866843aabc74e89ac7587f0ee9366df1e88678c?redirect=http%3A%2F%2Fwww.facebook.com%2F932022360245939","https://www.yellowpages.ca/bus/Ontario/Brampton/Kin-Fit-Bootcamp/102113510.html?what=plumbing&where=Toronto+ON&useContext=true","plumbing","2022-04-05 16:20:31.424313"
"Singh Bachiter","647-299-6975","2 Sled Dog Rd","Brampton","ON","L6R 0H8","https://www.yellowpages.ca/gourl/6b7137bc54d148c72ba3f7885b514711deca629a?redirect=https%3A%2F%2Fwww.facebook.com%2FSingh-Bachiter-541356506204111%2F","https://www.yellowpages.ca/bus/Ontario/Brampton/Singh-Bachiter/102095928.html?what=plumbing&where=Toronto+ON&useContext=true","plumbing","2022-04-05 16:20:31.424548"
"Rescom Plumbing","647-929-4272","7466 11th Line","Thornton","ON","L0L 2N2","https://www.yellowpages.ca/gourl/19dfb2ad9e82d16b74ea34581b4ab842fed0a162?redirect=https%3A%2F%2Fwww.facebook.com%2Frescomplumbinganddrains%2F","https://www.yellowpages.ca/bus/Ontario/Thornton/Rescom-Plumbing/101868760.html?what=plumbing&where=Toronto+ON&useContext=true","plumbing","2022-04-05 16:20:31.424781"
"MLS Plumbing","647-839-6373","","","","","","https://www.yellowpages.ca/bus/Ontario/MLS-Plumbing/7982332.html?what=plumbing&where=Toronto+ON&useContext=true","plumbing","2022-04-05 16:20:31.424978"
"SDP Plumbing","905-484-3534","","","","","","https://www.yellowpages.ca/bus/Ontario/SDP-Plumbing/8111765.html?what=plumbing&where=Toronto+ON&useContext=true","plumbing","2022-04-05 16:20:31.425172"
"Jayco Plumbing","613-818-0128","","","","","","https://www.yellowpages.ca/bus/Ontario/Jayco-Plumbing/8088686.html?what=plumbing&where=Toronto+ON&useContext=true","plumbing","2022-04-05 16:20:31.425370"
"RP Plumbing","416-526-5137","","","","","","https://www.yellowpages.ca/bus/Ontario/RP-Plumbing/7181061.html?what=plumbing&where=Toronto+ON&useContext=true","plumbing","2022-04-05 16:20:31.425578"
"DN Plumbing","416-783-0796","","","","","","https://www.yellowpages.ca/bus/Ontario/DN-Plumbing/7185622.html?what=plumbing&where=Toronto+ON&useContext=true","plumbing","2022-04-05 16:20:31.425773"
"Instant Rooter","613-824-9924","","","","","","https://www.yellowpages.ca/bus/Ontario/Instant-Rooter/6230459.html?what=plumbing&where=Toronto+ON&useContext=true","plumbing","2022-04-05 16:20:31.425967"
"Ironhorse Plumbing","226-448-6579","","","","","","https://www.yellowpages.ca/bus/Ontario/Ironhorse-Plumbing/101055395.html?what=plumbing&where=Toronto+ON&useContext=true","plumbing","2022-04-05 16:20:31.426160"
"Midtown Plumbing","647-547-0547","","","","","","https://www.yellowpages.ca/bus/Ontario/Midtown-Plumbing/100742403.html?what=plumbing&where=Toronto+ON&useContext=true","plumbing","2022-04-05 16:20:31.426353"
"Mime Plumbing","647-560-2256","","","","","","https://www.yellowpages.ca/bus/Ontario/Mime-Plumbing/101087058.html?what=plumbing&where=Toronto+ON&useContext=true","plumbing","2022-04-05 16:20:31.426555"
"Plumbing Bros","647-688-8891","","Toronto","ON","","","https://www.yellowpages.ca/bus/Ontario/Toronto/Plumbing-Bros/100479420.html?what=plumbing&where=Toronto+ON&useContext=true","plumbing","2022-04-05 16:20:31.426768"
"FDR Plumbing","647-226-2649","","","","","javascript:void(0);","https://www.yellowpages.ca/bus/Ontario/FDR-Plumbing/100523410.html?what=plumbing&where=Toronto+ON&useContext=true","plumbing","2022-04-05 16:20:31.426967"
"YYZ Plumbing","647-560-3226","","North York","ON","M6A 2B2","","https://www.yellowpages.ca/bus/Ontario/North-York/YYZ-Plumbing/100529335.html?what=plumbing&where=Toronto+ON&useContext=true","plumbing","2022-04-05 16:20:31.427187"
"Goodwill Mechanical","647-801-6994","","","","","","https://www.yellowpages.ca/bus/Ontario/Goodwill-Mechanical/100456477.html?what=plumbing&where=Toronto+ON&useContext=true","plumbing","2022-04-05 16:20:31.427386"
"GR Plumbing","647-287-1085","","","","","","https://www.yellowpages.ca/bus/Ontario/GR-Plumbing/100863463.html?what=plumbing&where=Toronto+ON&useContext=true","plumbing","2022-04-05 16:20:31.427579"
"Simcoe Plumbing","705-734-8372","","","","","","https://www.yellowpages.ca/bus/Ontario/Simcoe-Plumbing/101202003.html?what=plumbing&where=Toronto+ON&useContext=true","plumbing","2022-04-05 16:20:31.427771"
"Parry Plumbing","647-219-2015","","","","","","https://www.yellowpages.ca/bus/Ontario/Parry-Plumbing/100293241.html?what=plumbing&where=Toronto+ON&useContext=true","plumbing","2022-04-05 16:20:31.427965"
"LicensedPlumbers.CA","647-786-4353","406-4050 Dixie Rd","Mississauga","ON","L4W 5H4","","https://www.yellowpages.ca/bus/Ontario/Mississauga/LicensedPlumbers-CA/100542185.html?what=plumbing&where=Toronto+ON&useContext=true","plumbing","2022-04-05 16:20:31.428221"
"Bocka Plumbing","416-834-6568","U323-684 Av Warden","Scarborough","ON","M1L 4W4","","https://www.yellowpages.ca/bus/Ontario/Scarborough/Bocka-Plumbing/100361278.html?what=plumbing&where=Toronto+ON&useContext=true","plumbing","2022-04-05 16:20:31.428451"
"Action Plumbing","647-870-1657","25 Walbon Rd","Scarborough","ON","M1R 1Z1","javascript:void(0);","https://www.yellowpages.ca/bus/Ontario/Scarborough/Action-Plumbing/100503285.html?what=plumbing&where=Toronto+ON&useContext=true","plumbing","2022-04-05 16:20:31.428696"
"Rainbow Solutions","416-700-2495","118 Robert Hicks Dr","North York","ON","M2R 3R4","","https://www.yellowpages.ca/bus/Ontario/North-York/Rainbow-Solutions/8177426.html?what=plumbing&where=Toronto+ON&useContext=true","plumbing","2022-04-05 16:20:31.428933"
"United Mechanical","416-741-1614","19 Taber Rd","Etobicoke","ON","M9W 3A7","","https://www.yellowpages.ca/bus/Ontario/Etobicoke/United-Mechanical/5819542.html?what=plumbing&where=Toronto+ON&useContext=true","plumbing","2022-04-05 16:20:31.429162"
"Tuffco Inc","647-430-7626","4945 Steeles Ave W","North York","ON","M9L 1R4","","https://www.yellowpages.ca/bus/Ontario/North-York/Tuffco-Inc/100447070.html?what=plumbing&where=Toronto+ON&useContext=true","plumbing","2022-04-05 16:20:31.429391"
"Frisoni Mechanical","416-213-0455","255 Carrier Dr","Etobicoke","ON","M9W 5Y8","","https://www.yellowpages.ca/bus/Ontario/Etobicoke/Frisoni-Mechanical/8142003.html?what=plumbing&where=Toronto+ON&useContext=true","plumbing","2022-04-05 16:20:31.429619"
"Bossco Plumbing","416-324-8632","","","","","","https://www.yellowpages.ca/bus/Ontario/Bossco-Plumbing/4503940.html?what=plumbing&where=Toronto+ON&useContext=true","plumbing","2022-04-05 16:20:31.429810"
"Madill Plumbing","705-606-0062","","","","","","https://www.yellowpages.ca/bus/Ontario/Madill-Plumbing/7566282.html?what=plumbing&where=Toronto+ON&useContext=true","plumbing","2022-04-05 16:20:32.319679"
"Kuglar Plumbing","905-640-7781","","","","","","https://www.yellowpages.ca/bus/Ontario/Kuglar-Plumbing/7755191.html?what=plumbing&where=Toronto+ON&useContext=true","plumbing","2022-04-05 16:20:32.319880"
"Baysprings Plumbing","416-427-0955","","","","","","https://www.yellowpages.ca/bus/Ontario/Baysprings-Plumbing/6537632.html?what=plumbing&where=Toronto+ON&useContext=true","plumbing","2022-04-05 16:20:32.320076"
"Bennett Ronald","519-335-6637","","","","","","https://www.yellowpages.ca/bus/Ontario/Bennett-Ronald/7024480.html?what=plumbing&where=Toronto+ON&useContext=true","plumbing","2022-04-05 16:20:32.320274"
"Bronx Plumbing","647-927-4779","","","","","","https://www.yellowpages.ca/bus/Ontario/Bronx-Plumbing/8168793.html?what=plumbing&where=Toronto+ON&useContext=true","plumbing","2022-04-05 16:20:32.320467"
"Plumbrite Ltd","416-877-4387","","","","","","https://www.yellowpages.ca/bus/Ontario/Plumbrite-Ltd/101373840.html?what=plumbing&where=Toronto+ON&useContext=true","plumbing","2022-04-05 16:20:32.320661"
"Grace Plumbing","416-977-0581","","","","","","https://www.yellowpages.ca/bus/Ontario/Grace-Plumbing/100440947.html?what=plumbing&where=Toronto+ON&useContext=true","plumbing","2022-04-05 16:20:32.320844"
"Boss Plumbing","647-986-2588","","","","","","https://www.yellowpages.ca/bus/Ontario/Boss-Plumbing/100280273.html?what=plumbing&where=Toronto+ON&useContext=true","plumbing","2022-04-05 16:20:32.321038"
"JDK Plumbing","613-847-9525","","","","","","https://www.yellowpages.ca/bus/Ontario/JDK-Plumbing/101052520.html?what=plumbing&where=Toronto+ON&useContext=true","plumbing","2022-04-05 16:20:32.321229"
"Abm Inc","416-798-0003","22 Jutland Rd","Etobicoke","ON","M8Z 2G9","","https://www.yellowpages.ca/bus/Ontario/Etobicoke/Abm-Inc/100776338.html?what=plumbing&where=Toronto+ON&useContext=true","plumbing","2022-04-05 16:20:32.321481"
"Tym Plumbing","613-258-2250","","","","","","https://www.yellowpages.ca/bus/Ontario/Tym-Plumbing/8090400.html?what=plumbing&where=Toronto+ON&useContext=true","plumbing","2022-04-05 16:20:32.321701"
"Macstewartplumbing.ca","705-733-1514","","","","","","https://www.yellowpages.ca/bus/Ontario/Macstewartplumbing-ca/100869932.html?what=plumbing&where=Toronto+ON&useContext=true","plumbing","2022-04-05 16:20:32.321920"
"Garryson Plumbing","905-746-6196","","","","","","https://www.yellowpages.ca/bus/Ontario/Garryson-Plumbing/101173870.html?what=plumbing&where=Toronto+ON&useContext=true","plumbing","2022-04-05 16:20:32.322140"
"Pauls Plumbing","647-232-8737","","","","","","https://www.yellowpages.ca/bus/Ontario/Pauls-Plumbing/101173921.html?what=plumbing&where=Toronto+ON&useContext=true","plumbing","2022-04-05 16:20:32.322361"
"Coldstream plumbing","416-669-9040","","Brampton","ON","L6R 2Y8","","https://www.yellowpages.ca/bus/Ontario/Brampton/Coldstream-plumbing/101009196.html?what=plumbing&where=Toronto+ON&useContext=true","plumbing","2022-04-05 16:20:32.322618"
"Corput Plumbing","613-363-9255","","","","","","https://www.yellowpages.ca/bus/Ontario/Corput-Plumbing/100998844.html?what=plumbing&where=Toronto+ON&useContext=true","plumbing","2022-04-05 16:20:32.322839"
"Gemini Plumbing","416-570-5223","","","","","","https://www.yellowpages.ca/bus/Ontario/Gemini-Plumbing/7177518.html?what=plumbing&where=Toronto+ON&useContext=true","plumbing","2022-04-05 16:20:32.323028"
"Trademark Plumbing","416-258-8231","","","","","","https://www.yellowpages.ca/bus/Ontario/Trademark-Plumbing/100172309.html?what=plumbing&where=Toronto+ON&useContext=true","plumbing","2022-04-05 16:20:32.323223"
"RH Plumbing","416-794-6674","","","","","","https://www.yellowpages.ca/bus/Ontario/RH-Plumbing/100372541.html?what=plumbing&where=Toronto+ON&useContext=true","plumbing","2022-04-05 16:20:32.323412"
"Vit Plumbing","416-333-8552","25 The Esplanade","Toronto","ON","M5E 1W5","","https://www.yellowpages.ca/bus/Ontario/Toronto/Vit-Plumbing/101699462.html?what=plumbing&where=Toronto+ON&useContext=true","plumbing","2022-04-05 16:20:32.323641"
"Plumber Toronto","647-496-9617","1801-1 Yonge St","Toronto","ON","M5E 1W7","","https://www.yellowpages.ca/bus/Ontario/Toronto/Plumber-Toronto/100544603.html?what=plumbing&where=Toronto+ON&useContext=true","plumbing","2022-04-05 16:20:32.323871"
"Blue Tech","416-581-0199","437 Yonge St","Toronto","ON","M5B 1T3","","https://www.yellowpages.ca/bus/Ontario/Toronto/Blue-Tech/101812292.html?what=plumbing&where=Toronto+ON&useContext=true","plumbing","2022-04-05 16:20:32.324099"
"The Plumber","416-930-0204","125 Queens Wharf Rd","Toronto","ON","M5V 0E2","","https://www.yellowpages.ca/bus/Ontario/Toronto/The-Plumber/102604914.html?what=plumbing&where=Toronto+ON&useContext=true","plumbing","2022-04-05 16:20:32.324329"
"Sewer Squad Plumbing & Drain Services","416-571-8499","1-682 Monarch Ave","Ajax","ON","L1S 4S2","","https://www.yellowpages.ca/bus/Ontario/Ajax/Sewer-Squad-Plumbing-Drain-Services/101875051.html?what=plumbing&where=Toronto+ON&useContext=true","plumbing","2022-04-05 16:20:32.324564"
"DN Plumbing","416-857-8788","","","ON","M6B 1M2","","https://www.yellowpages.ca/bus/Ontario/DN-Plumbing/7134492.html?what=plumbing&where=Toronto+ON&useContext=true","plumbing","2022-04-05 16:20:32.324776"
"H Hto Plumbers","416-901-9766","2453 St Clair Ave W","Toronto","ON","M6N 1K9","","https://www.yellowpages.ca/bus/Ontario/Toronto/H-Hto-Plumbers/102309414.html?what=plumbing&where=Toronto+ON&useContext=true","plumbing","2022-04-05 16:20:32.325009"
"Bath Plus","416-800-8792
1-888-780-2934","603-380 Alliance Ave","Toronto","ON","M6N 2H8","","https://www.yellowpages.ca/bus/Ontario/Toronto/Bath-Plus/101777388.html?what=plumbing&where=Toronto+ON&useContext=true","plumbing","2022-04-05 16:20:32.325242"
"Uptown Plumbing","647-560-3340","712-777 Jane St","York","ON","M6N 4B6","","https://www.yellowpages.ca/bus/Ontario/York/Uptown-Plumbing/100409101.html?what=plumbing&where=Toronto+ON&useContext=true","plumbing","2022-04-05 16:20:32.325473"
"Jermark Plumbing","416-781-8983","241 Bridgeland Ave","North York","ON","M6A 1Y7","","https://www.yellowpages.ca/bus/Ontario/North-York/Jermark-Plumbing/101187490.html?what=plumbing&where=Toronto+ON&useContext=true","plumbing","2022-04-05 16:20:32.325702"
"Cande Plumbing","416-445-9323","20 Avonwick Gate","North York","ON","M3A 2M6","","https://www.yellowpages.ca/bus/Ontario/North-York/Cande-Plumbing/299300.html?what=plumbing&where=Toronto+ON&useContext=true","plumbing","2022-04-05 16:20:32.325930"
"Embree Plumbing","416-283-7411","44 Stubbs Dr","North York","ON","M2L 2R3","javascript:void(0);","https://www.yellowpages.ca/bus/Ontario/North-York/Embree-Plumbing/5888965.html?what=plumbing&where=Toronto+ON&useContext=true","plumbing","2022-04-05 16:20:32.326165"
"Maelstrom Ltd","647-688-1680","39 Newstead Rd","Toronto","ON","M9P 3G2","","https://www.yellowpages.ca/bus/Ontario/Toronto/Maelstrom-Ltd/100554814.html?what=plumbing&where=Toronto+ON&useContext=true","plumbing","2022-04-05 16:20:32.326395"
"Wardco Distribution","416-244-5661","18 Vanderbrent Cres","Etobicoke","ON","M9R 3W8","","https://www.yellowpages.ca/bus/Ontario/Etobicoke/Wardco-Distribution/100068177.html?what=plumbing&where=Toronto+ON&useContext=true","plumbing","2022-04-05 16:20:32.326645"
"Spotify Canada Inc","416-546-4576","220 Adelaide St W","Scarborough","ON","","","https://www.yellowpages.ca/bus/Ontario/Scarborough/Spotify-Canada-Inc/7441510.html?what=plumbing&where=Toronto+ON&useContext=true","plumbing","2022-04-05 16:20:32.326868"
"Neat Plumbing","416-616-9989","7165 Yonge St","Markham","ON","L3T 0C9","","https://www.yellowpages.ca/bus/Ontario/Markham/Neat-Plumbing/101763903.html?what=plumbing&where=Toronto+ON&useContext=true","plumbing","2022-04-05 16:20:32.327097"
"Alfa Plumbing","416-880-4243","190 Dudley Ave","","ON","L3T 2E9","","https://www.yellowpages.ca/bus/Ontario/Alfa-Plumbing/102239519.html?what=plumbing&where=Toronto+ON&useContext=true","plumbing","2022-04-05 16:20:33.234214"
"Timell Inc","416-291-0670","4725 Sheppard Ave E","Scarborough","ON","M1S 5B2","","https://www.yellowpages.ca/bus/Ontario/Scarborough/Timell-Inc/7156977.html?what=plumbing&where=Toronto+ON&useContext=true","plumbing","2022-04-05 16:20:33.234472"
"King Plumbing","416-203-9961","568 Mississauga Valley Blvd","Mississauga","ON","L5A 1Z1","","https://www.yellowpages.ca/bus/Ontario/Mississauga/King-Plumbing/102504054.html?what=plumbing&where=Toronto+ON&useContext=true","plumbing","2022-04-05 16:20:33.234707"
"Paul Theva","647-435-9130","3 Port Royal Trail","Scarborough","ON","M1V 2G4","","https://www.yellowpages.ca/bus/Ontario/Scarborough/Paul-Theva/7123825.html?what=plumbing&where=Toronto+ON&useContext=true","plumbing","2022-04-05 16:20:33.234941"
"Dezign Market","647-697-3370","8-1641 Langstaff Rd","Concord","ON","L4K 5X8","","https://www.yellowpages.ca/bus/Ontario/Concord/Dezign-Market/102003564.html?what=plumbing&where=Toronto+ON&useContext=true","plumbing","2022-04-05 16:20:33.235170"
"Kohler Ltd","416-802-1250","107 Woodbine Downs Blvd","Toronto","ON","M9W 6Y1","","https://www.yellowpages.ca/bus/Ontario/Toronto/Kohler-Ltd/7154801.html?what=plumbing&where=Toronto+ON&useContext=true","plumbing","2022-04-05 16:20:33.235400"
"Antec Plumbing","416-674-8080","24 Steinway Blvd","Etobicoke","ON","M9W 6T8","","https://www.yellowpages.ca/bus/Ontario/Etobicoke/Antec-Plumbing/101376356.html?what=plumbing&where=Toronto+ON&useContext=true","plumbing","2022-04-05 16:20:33.235629"
"Empyrean Inc.","647-785-9904","167 Glenn Hawthorne Blvd","Mississauga","ON","L5R 2K8","","https://www.yellowpages.ca/bus/Ontario/Mississauga/Empyrean-Inc/102004297.html?what=plumbing&where=Toronto+ON&useContext=true","plumbing","2022-04-05 16:20:33.235857"
"Diamond Plumbing","647-261-2955","27 Denlow Dr","Brampton","ON","L6Y 2L3","","https://www.yellowpages.ca/bus/Ontario/Brampton/Diamond-Plumbing/102533621.html?what=plumbing&where=Toronto+ON&useContext=true","plumbing","2022-04-05 16:20:33.236101"
"Quadro Design","416-876-9132","288 Speers Rd","Oakville","ON","L6K 2E9","","https://www.yellowpages.ca/bus/Ontario/Oakville/Quadro-Design/102002516.html?what=plumbing&where=Toronto+ON&useContext=true","plumbing","2022-04-05 16:20:33.236329"
"VASCO-MECH","647-500-7640","","Beeton","ON","","","https://www.yellowpages.ca/bus/Ontario/Beeton/VASCO-MECH/101171021.html?what=plumbing&where=Toronto+ON&useContext=true","plumbing","2022-04-05 16:20:33.236540"
"KW Plumber","226-339-6092","421 Barrie Pl","Waterloo","ON","N2L 3Z6","javascript:void(0);","https://www.yellowpages.ca/bus/Ontario/Waterloo/KW-Plumber/101341240.html?what=plumbing&where=Toronto+ON&useContext=true","plumbing","2022-04-05 16:20:33.236775"
"Johnston Plumbing","705-741-8409","","","","","","https://www.yellowpages.ca/bus/Ontario/Johnston-Plumbing/8186383.html?what=plumbing&where=Toronto+ON&useContext=true","plumbing","2022-04-05 16:20:33.236978"
"Federal Plumbing","416-828-5361","","","","","","https://www.yellowpages.ca/bus/Ontario/Federal-Plumbing/7965226.html?what=plumbing&where=Toronto+ON&useContext=true","plumbing","2022-04-05 16:20:33.237168"
"DeKorte Plumbing","905-818-8462","","","","","","https://www.yellowpages.ca/bus/Ontario/DeKorte-Plumbing/8099039.html?what=plumbing&where=Toronto+ON&useContext=true","plumbing","2022-04-05 16:20:33.237358"
"Vandenberg Plumbing","519-770-5152","","","","","","https://www.yellowpages.ca/bus/Ontario/Vandenberg-Plumbing/7918760.html?what=plumbing&where=Toronto+ON&useContext=true","plumbing","2022-04-05 16:20:33.237547"
"Atlas Plumbing","905-329-1768","","","","","","https://www.yellowpages.ca/bus/Ontario/Atlas-Plumbing/8078411.html?what=plumbing&where=Toronto+ON&useContext=true","plumbing","2022-04-05 16:20:33.237736"
"Service Rooter","647-497-5322","","","","","","https://www.yellowpages.ca/bus/Ontario/Service-Rooter/8110853.html?what=plumbing&where=Toronto+ON&useContext=true","plumbing","2022-04-05 16:20:33.237924"
"Service Rooter","647-497-5233","","","","","","https://www.yellowpages.ca/bus/Ontario/Service-Rooter/8107525.html?what=plumbing&where=Toronto+ON&useContext=true","plumbing","2022-04-05 16:20:33.238113"
"Affordable Plumbing","416-222-3140","","","","","","https://www.yellowpages.ca/bus/Ontario/Affordable-Plumbing/8050242.html?what=plumbing&where=Toronto+ON&useContext=true","plumbing","2022-04-05 16:20:33.238301"
"Seal Masters","416-878-8310","","","","","","https://www.yellowpages.ca/bus/Ontario/Seal-Masters/7177773.html?what=plumbing&where=Toronto+ON&useContext=true","plumbing","2022-04-05 16:20:33.238496"
"Argo Plumbing","416-635-6532","","","","","","https://www.yellowpages.ca/bus/Ontario/Argo-Plumbing/7175545.html?what=plumbing&where=Toronto+ON&useContext=true","plumbing","2022-04-05 16:20:33.238685"
"Service Rooter","905-868-5000","","","","","","https://www.yellowpages.ca/bus/Ontario/Service-Rooter/7597091.html?what=plumbing&where=Toronto+ON&useContext=true","plumbing","2022-04-05 16:20:33.238878"
"Pipe Doctor","905-320-4047","","","","","","https://www.yellowpages.ca/bus/Ontario/Pipe-Doctor/4402999.html?what=plumbing&where=Toronto+ON&useContext=true","plumbing","2022-04-05 16:20:33.239068"
"Plumber Alex","416-505-4780","","","","","","https://www.yellowpages.ca/bus/Ontario/Plumber-Alex/7175331.html?what=plumbing&where=Toronto+ON&useContext=true","plumbing","2022-04-05 16:20:33.239260"
"Taki Plumbing","416-465-3967","","","","","","https://www.yellowpages.ca/bus/Ontario/Taki-Plumbing/7179746.html?what=plumbing&where=Toronto+ON&useContext=true","plumbing","2022-04-05 16:20:33.239448"
"M&J Plumbing","416-992-0691","","","","","","https://www.yellowpages.ca/bus/Ontario/M-J-Plumbing/7180446.html?what=plumbing&where=Toronto+ON&useContext=true","plumbing","2022-04-05 16:20:33.239637"
"Andre Plumber","647-284-5910","","","","","","https://www.yellowpages.ca/bus/Ontario/Andre-Plumber/7182710.html?what=plumbing&where=Toronto+ON&useContext=true","plumbing","2022-04-05 16:20:33.239835"
"Plumber Gerry","613-547-2619","","","","","","https://www.yellowpages.ca/bus/Ontario/Plumber-Gerry/7103933.html?what=plumbing&where=Toronto+ON&useContext=true","plumbing","2022-04-05 16:20:33.240024"
"Robinson Plumbing","519-537-0002","","","","","","https://www.yellowpages.ca/bus/Ontario/Robinson-Plumbing/7032481.html?what=plumbing&where=Toronto+ON&useContext=true","plumbing","2022-04-05 16:20:33.240213"
"Moshon Plumbing","905-707-7770","","","","","","https://www.yellowpages.ca/bus/Ontario/Moshon-Plumbing/7012516.html?what=plumbing&where=Toronto+ON&useContext=true","plumbing","2022-04-05 16:20:33.240402"
"Kuzma Plumbing","905-883-3934","","","","","","https://www.yellowpages.ca/bus/Ontario/Kuzma-Plumbing/7022289.html?what=plumbing&where=Toronto+ON&useContext=true","plumbing","2022-04-05 16:20:33.240591"
"Florence Plumbing","905-868-7318","","","","","","https://www.yellowpages.ca/bus/Ontario/Florence-Plumbing/7040454.html?what=plumbing&where=Toronto+ON&useContext=true","plumbing","2022-04-05 16:20:33.240779"
"Artery Plumbing","416-425-8146","","","","","","https://www.yellowpages.ca/bus/Ontario/Artery-Plumbing/7180964.html?what=plumbing&where=Toronto+ON&useContext=true","plumbing","2022-04-05 16:20:33.240969"
"Dependable Plumbing","905-868-2257","","","","","","https://www.yellowpages.ca/bus/Ontario/Dependable-Plumbing/7011912.html?what=plumbing&where=Toronto+ON&useContext=true","plumbing","2022-04-05 16:20:33.241157"
"Burtch Plumbing","705-749-1997","","","","","","https://www.yellowpages.ca/bus/Ontario/Burtch-Plumbing/7011590.html?what=plumbing&where=Toronto+ON&useContext=true","plumbing","2022-04-05 16:20:34.153446"
"Kuzma Plumbing","905-737-0672","","","","","","https://www.yellowpages.ca/bus/Ontario/Kuzma-Plumbing/7012487.html?what=plumbing&where=Toronto+ON&useContext=true","plumbing","2022-04-05 16:20:34.153646"
"Stait Plumbing","905-929-6651","","","","","","https://www.yellowpages.ca/bus/Ontario/Stait-Plumbing/7040735.html?what=plumbing&where=Toronto+ON&useContext=true","plumbing","2022-04-05 16:20:34.153838"
"Ralex Mechanical","647-496-2656","","","","","","https://www.yellowpages.ca/bus/Ontario/Ralex-Mechanical/101637489.html?what=plumbing&where=Toronto+ON&useContext=true","plumbing","2022-04-05 16:20:34.154029"
"GTA Plumbing","647-782-5475","","Toronto","ON","","","https://www.yellowpages.ca/bus/Ontario/Toronto/GTA-Plumbing/101286800.html?what=plumbing&where=Toronto+ON&useContext=true","plumbing","2022-04-05 16:20:34.154241"
"Dylan Plumbing","647-632-1047","","","","","","https://www.yellowpages.ca/bus/Ontario/Dylan-Plumbing/101287566.html?what=plumbing&where=Toronto+ON&useContext=true","plumbing","2022-04-05 16:20:34.154438"
"Affordable Plumbing","647-466-3891","","","","","","https://www.yellowpages.ca/bus/Ontario/Affordable-Plumbing/101286963.html?what=plumbing&where=Toronto+ON&useContext=true","plumbing","2022-04-05 16:20:34.154632"
"Amir Plumbing","647-774-0870","","Toronto","ON","","","https://www.yellowpages.ca/bus/Ontario/Toronto/Amir-Plumbing/101287758.html?what=plumbing&where=Toronto+ON&useContext=true","plumbing","2022-04-05 16:20:34.154832"
"YYZ Plumbing","647-560-3226","","","","","","https://www.yellowpages.ca/bus/Ontario/YYZ-Plumbing/101634724.html?what=plumbing&where=Toronto+ON&useContext=true","plumbing","2022-04-05 16:20:34.155023"
"Direct Service","416-932-0677","","","","","","https://www.yellowpages.ca/bus/Ontario/Direct-Service/101626574.html?what=plumbing&where=Toronto+ON&useContext=true","plumbing","2022-04-05 16:20:34.155232"
"Rooter-Man","416-604-0088","","","","","","https://www.yellowpages.ca/bus/Ontario/Rooter-Man/101648115.html?what=plumbing&where=Toronto+ON&useContext=true","plumbing","2022-04-05 16:20:34.155428"
"Burroughs Plumbing","519-677-4498","","","","","","https://www.yellowpages.ca/bus/Ontario/Burroughs-Plumbing/101652183.html?what=plumbing&where=Toronto+ON&useContext=true","plumbing","2022-04-05 16:20:34.155618"
"Rooter-Man","416-749-0113","","","","","","https://www.yellowpages.ca/bus/Ontario/Rooter-Man/101672569.html?what=plumbing&where=Toronto+ON&useContext=true","plumbing","2022-04-05 16:20:34.155808"
"Plumbing Professional","613-425-0251","","","","","","https://www.yellowpages.ca/bus/Ontario/Plumbing-Professional/8228544.html?what=plumbing&where=Toronto+ON&useContext=true","plumbing","2022-04-05 16:20:34.156008"
"Presco Plumbing","647-799-2405","","","","","","https://www.yellowpages.ca/bus/Ontario/Presco-Plumbing/8218503.html?what=plumbing&where=Toronto+ON&useContext=true","plumbing","2022-04-05 16:20:34.156203"
"Ocean Plumbing","647-771-4302","","","","","","https://www.yellowpages.ca/bus/Ontario/Ocean-Plumbing/8135112.html?what=plumbing&where=Toronto+ON&useContext=true","plumbing","2022-04-05 16:20:34.156393"
"Aerotech Plumbing","613-978-5751","","","","","","https://www.yellowpages.ca/bus/Ontario/Aerotech-Plumbing/8143234.html?what=plumbing&where=Toronto+ON&useContext=true","plumbing","2022-04-05 16:20:34.156582"
"Volyn Plumbing","647-219-3535","","","","","","https://www.yellowpages.ca/bus/Ontario/Volyn-Plumbing/8008245.html?what=plumbing&where=Toronto+ON&useContext=true","plumbing","2022-04-05 16:20:34.156771"
"PDL Services","705-949-7240","","","","","","https://www.yellowpages.ca/bus/Ontario/PDL-Services/101563378.html?what=plumbing&where=Toronto+ON&useContext=true","plumbing","2022-04-05 16:20:34.156960"
"Allard Plumbing","705-918-6213","","","","","","https://www.yellowpages.ca/bus/Ontario/Allard-Plumbing/101275836.html?what=plumbing&where=Toronto+ON&useContext=true","plumbing","2022-04-05 16:20:34.157150"
"T&M Plumbing","613-627-1206","","","","","","https://www.yellowpages.ca/bus/Ontario/T-M-Plumbing/101038666.html?what=plumbing&where=Toronto+ON&useContext=true","plumbing","2022-04-05 16:20:34.157341"
"Plumb Tech","519-627-7878","","","","","","https://www.yellowpages.ca/bus/Ontario/Plumb-Tech/101033690.html?what=plumbing&where=Toronto+ON&useContext=true","plumbing","2022-04-05 16:20:34.157533"
"Boss Plumbing","647-529-9597","","","","","","https://www.yellowpages.ca/bus/Ontario/Boss-Plumbing/101025183.html?what=plumbing&where=Toronto+ON&useContext=true","plumbing","2022-04-05 16:20:34.157722"
"JS Plumbing","647-575-7503","","","","","","https://www.yellowpages.ca/bus/Ontario/JS-Plumbing/101023868.html?what=plumbing&where=Toronto+ON&useContext=true","plumbing","2022-04-05 16:20:34.157912"
"Advanced Plumbing","705-774-3292","","","","","","https://www.yellowpages.ca/bus/Ontario/Advanced-Plumbing/101039297.html?what=plumbing&where=Toronto+ON&useContext=true","plumbing","2022-04-05 16:20:34.158100"
"Dr Plumber","647-234-3149","","","","","","https://www.yellowpages.ca/bus/Ontario/Dr-Plumber/100941655.html?what=plumbing&where=Toronto+ON&useContext=true","plumbing","2022-04-05 16:20:34.158288"
"Carling Plumbing","613-482-0364","","","","","","https://www.yellowpages.ca/bus/Ontario/Carling-Plumbing/100956218.html?what=plumbing&where=Toronto+ON&useContext=true","plumbing","2022-04-05 16:20:34.158534"
"Plumb Tech","519-736-3535","","","","","","https://www.yellowpages.ca/bus/Ontario/Plumb-Tech/100974329.html?what=plumbing&where=Toronto+ON&useContext=true","plumbing","2022-04-05 16:20:34.158726"
"Amcor Plumbing","647-267-2922","","Toronto","ON","","","https://www.yellowpages.ca/bus/Ontario/Toronto/Amcor-Plumbing/100984787.html?what=plumbing&where=Toronto+ON&useContext=true","plumbing","2022-04-05 16:20:34.158935"
"Ricks Plumbing","705-887-6462","","","","","","https://www.yellowpages.ca/bus/Ontario/Ricks-Plumbing/100950754.html?what=plumbing&where=Toronto+ON&useContext=true","plumbing","2022-04-05 16:20:34.159125"
"Marley Plumbing","705-790-8210","","","","","","https://www.yellowpages.ca/bus/Ontario/Marley-Plumbing/100927259.html?what=plumbing&where=Toronto+ON&useContext=true","plumbing","2022-04-05 16:20:34.159314"
"Rotonda Plumbing","647-407-8144","","","","","","https://www.yellowpages.ca/bus/Ontario/Rotonda-Plumbing/100933571.html?what=plumbing&where=Toronto+ON&useContext=true","plumbing","2022-04-05 16:20:34.159503"
"Kes Plumbing","647-338-7353","","","","","","https://www.yellowpages.ca/bus/Ontario/Kes-Plumbing/101051850.html?what=plumbing&where=Toronto+ON&useContext=true","plumbing","2022-04-05 16:20:34.159691"
"Anta Plumbing","416-639-5672","","","","","","https://www.yellowpages.ca/bus/Ontario/Anta-Plumbing/101154840.html?what=plumbing&where=Toronto+ON&useContext=true","plumbing","2022-04-05 16:20:34.159880"
"Walter Plumbing","519-816-5876","","","","","","https://www.yellowpages.ca/bus/Ontario/Walter-Plumbing/101065900.html?what=plumbing&where=Toronto+ON&useContext=true","plumbing","2022-04-05 16:20:34.160068"
"L&E Plumbing","647-607-0364","","","","","","https://www.yellowpages.ca/bus/Ontario/L-E-Plumbing/101062412.html?what=plumbing&where=Toronto+ON&useContext=true","plumbing","2022-04-05 16:20:35.279006"
"MBC Plumbing","647-884-8755","","","","","","https://www.yellowpages.ca/bus/Ontario/MBC-Plumbing/101130078.html?what=plumbing&where=Toronto+ON&useContext=true","plumbing","2022-04-05 16:20:35.279210"
"LVT Plumbing","289-838-4406","","","","","","https://www.yellowpages.ca/bus/Ontario/LVT-Plumbing/101139818.html?what=plumbing&where=Toronto+ON&useContext=true","plumbing","2022-04-05 16:20:35.279406"
"T Plumbing","226-789-5748","","","","","","https://www.yellowpages.ca/bus/Ontario/T-Plumbing/101067167.html?what=plumbing&where=Toronto+ON&useContext=true","plumbing","2022-04-05 16:20:35.279601"
"Payne Plumbing","705-326-7419","","","","","","https://www.yellowpages.ca/bus/Ontario/Payne-Plumbing/101081981.html?what=plumbing&where=Toronto+ON&useContext=true","plumbing","2022-04-05 16:20:35.279796"
"EM Plumbing","647-778-7275","","","","","","https://www.yellowpages.ca/bus/Ontario/EM-Plumbing/101086178.html?what=plumbing&where=Toronto+ON&useContext=true","plumbing","2022-04-05 16:20:35.279989"
"Plomberie Progress","647-477-7316","","","","","","https://www.yellowpages.ca/bus/Ontario/Plomberie-Progress/101105256.html?what=plumbing&where=Toronto+ON&useContext=true","plumbing","2022-04-05 16:20:35.280183"
"LP Plumbing","647-770-4666","","","","","","https://www.yellowpages.ca/bus/Ontario/LP-Plumbing/101130685.html?what=plumbing&where=Toronto+ON&useContext=true","plumbing","2022-04-05 16:20:35.280376"
"VMP Plumbing","416-879-1737","","","","","","https://www.yellowpages.ca/bus/Ontario/VMP-Plumbing/101164342.html?what=plumbing&where=Toronto+ON&useContext=true","plumbing","2022-04-05 16:20:35.280567"
"Cook Plumbing","226-798-0694","","","","","","https://www.yellowpages.ca/bus/Ontario/Cook-Plumbing/101095643.html?what=plumbing&where=Toronto+ON&useContext=true","plumbing","2022-04-05 16:20:35.280761"
"TM Plumbing","416-802-8568","","","","","","https://www.yellowpages.ca/bus/Ontario/TM-Plumbing/101095628.html?what=plumbing&where=Toronto+ON&useContext=true","plumbing","2022-04-05 16:20:35.280958"
"Creative Plumbing","416-689-8431","","","","","","https://www.yellowpages.ca/bus/Ontario/Creative-Plumbing/100750650.html?what=plumbing&where=Toronto+ON&useContext=true","plumbing","2022-04-05 16:20:35.281155"
"Hydron Plumber","647-494-4041","","","","","","https://www.yellowpages.ca/bus/Ontario/Hydron-Plumber/100762575.html?what=plumbing&where=Toronto+ON&useContext=true","plumbing","2022-04-05 16:20:35.281345"
"Tech Plumbing","416-989-6259","","TORONTO","ON","","","https://www.yellowpages.ca/bus/Ontario/TORONTO/Tech-Plumbing/100925482.html?what=plumbing&where=Toronto+ON&useContext=true","plumbing","2022-04-05 16:20:35.281555"
"Applewood Plumbing","519-624-9729","","","","","","https://www.yellowpages.ca/bus/Ontario/Applewood-Plumbing/101055403.html?what=plumbing&where=Toronto+ON&useContext=true","plumbing","2022-04-05 16:20:35.281747"
"Protex Plumbing","905-442-8391","","Hamilton","ON","","","https://www.yellowpages.ca/bus/Ontario/Hamilton/Protex-Plumbing/100950766.html?what=plumbing&where=Toronto+ON&useContext=true","plumbing","2022-04-05 16:20:35.281957"
"Anything Plumbing","289-527-3446","","","","","","https://www.yellowpages.ca/bus/Ontario/Anything-Plumbing/100974793.html?what=plumbing&where=Toronto+ON&useContext=true","plumbing","2022-04-05 16:20:35.282147"
"Zegg Plumbing","519-932-0285","","","","","","https://www.yellowpages.ca/bus/Ontario/Zegg-Plumbing/100936270.html?what=plumbing&where=Toronto+ON&useContext=true","plumbing","2022-04-05 16:20:35.282336"
"RH Plumbing","416-931-7275","","","","","","https://www.yellowpages.ca/bus/Ontario/RH-Plumbing/100960523.html?what=plumbing&where=Toronto+ON&useContext=true","plumbing","2022-04-05 16:20:35.282530"
"SMK Plumbing","519-716-4139","","Cambridge","ON","","","https://www.yellowpages.ca/bus/Ontario/Cambridge/SMK-Plumbing/100974705.html?what=plumbing&where=Toronto+ON&useContext=true","plumbing","2022-04-05 16:20:35.282739"
"Valley Mechanical","647-545-7987","","","","","","https://www.yellowpages.ca/bus/Ontario/Valley-Mechanical/100950484.html?what=plumbing&where=Toronto+ON&useContext=true","plumbing","2022-04-05 16:20:35.282930"
"Affordable Plumbing","289-880-6541","","Mount Hope","ON","L0R 1W0","","https://www.yellowpages.ca/bus/Ontario/Mount-Hope/Affordable-Plumbing/100969390.html?what=plumbing&where=Toronto+ON&useContext=true","plumbing","2022-04-05 16:20:35.283158"
"Easy Plumbing","416-825-0301","","","","","","https://www.yellowpages.ca/bus/Ontario/Easy-Plumbing/101112708.html?what=plumbing&where=Toronto+ON&useContext=true","plumbing","2022-04-05 16:20:35.283350"
"Wills Plumbing","416-804-3762","","","","","","https://www.yellowpages.ca/bus/Ontario/Wills-Plumbing/101107658.html?what=plumbing&where=Toronto+ON&useContext=true","plumbing","2022-04-05 16:20:35.283540"
"Presco Plumbing","647-557-1928","","","","","","https://www.yellowpages.ca/bus/Ontario/Presco-Plumbing/100749141.html?what=plumbing&where=Toronto+ON&useContext=true","plumbing","2022-04-05 16:20:35.283730"
"Trenton Plumbing","226-229-1125","","","","","","https://www.yellowpages.ca/bus/Ontario/Trenton-Plumbing/100731950.html?what=plumbing&where=Toronto+ON&useContext=true","plumbing","2022-04-05 16:20:35.283920"
"Florence Plumbing","647-870-5054","","","","","","https://www.yellowpages.ca/bus/Ontario/Florence-Plumbing/101117703.html?what=plumbing&where=Toronto+ON&useContext=true","plumbing","2022-04-05 16:20:35.284109"
"Stallion Plumbing","647-998-9567","","","","","","https://www.yellowpages.ca/bus/Ontario/Stallion-Plumbing/101094859.html?what=plumbing&where=Toronto+ON&useContext=true","plumbing","2022-04-05 16:20:35.284299"
"DAI Plumbing","416-262-3013","","","","","","https://www.yellowpages.ca/bus/Ontario/DAI-Plumbing/101141843.html?what=plumbing&where=Toronto+ON&useContext=true","plumbing","2022-04-05 16:20:35.284488"
"Golden Plumbing","647-877-1900","","","","","","https://www.yellowpages.ca/bus/Ontario/Golden-Plumbing/101129638.html?what=plumbing&where=Toronto+ON&useContext=true","plumbing","2022-04-05 16:20:35.284676"
"James Plumbing","416-500-9699","","","","","","https://www.yellowpages.ca/bus/Ontario/James-Plumbing/101056668.html?what=plumbing&where=Toronto+ON&useContext=true","plumbing","2022-04-05 16:20:35.284865"
"Holledge Plumbing","905-806-9700","","","","","","https://www.yellowpages.ca/bus/Ontario/Holledge-Plumbing/101150071.html?what=plumbing&where=Toronto+ON&useContext=true","plumbing","2022-04-05 16:20:35.285054"
"Plumber Christian","647-880-5021","","","","","","https://www.yellowpages.ca/bus/Ontario/Plumber-Christian/101139020.html?what=plumbing&where=Toronto+ON&useContext=true","plumbing","2022-04-05 16:20:35.285243"
"NCB Plumbing","416-885-0514","","","","","","https://www.yellowpages.ca/bus/Ontario/NCB-Plumbing/101166888.html?what=plumbing&where=Toronto+ON&useContext=true","plumbing","2022-04-05 16:20:35.285431"
"Perfect Plumbing","905-306-7526","","","","","","https://www.yellowpages.ca/bus/Ontario/Perfect-Plumbing/101056678.html?what=plumbing&where=Toronto+ON&useContext=true","plumbing","2022-04-05 16:20:35.285620"
"JS Plumbing","416-879-5309","","","","","","https://www.yellowpages.ca/bus/Ontario/JS-Plumbing/101061920.html?what=plumbing&where=Toronto+ON&useContext=true","plumbing","2022-04-05 16:20:36.318959"
"JRB Plumbing","705-919-8026","","","","","","https://www.yellowpages.ca/bus/Ontario/JRB-Plumbing/101076463.html?what=plumbing&where=Toronto+ON&useContext=true","plumbing","2022-04-05 16:20:36.319165"
"Shauns plumbing","905-902-4037","","","","","","https://www.yellowpages.ca/bus/Ontario/Shauns-plumbing/101101729.html?what=plumbing&where=Toronto+ON&useContext=true","plumbing","2022-04-05 16:20:36.319361"
"Boudens Plumbing","613-831-1914","","","","","","https://www.yellowpages.ca/bus/Ontario/Boudens-Plumbing/101061087.html?what=plumbing&where=Toronto+ON&useContext=true","plumbing","2022-04-05 16:20:36.319554"
"VW Plumbing","519-854-3065","","","","","","https://www.yellowpages.ca/bus/Ontario/VW-Plumbing/101085491.html?what=plumbing&where=Toronto+ON&useContext=true","plumbing","2022-04-05 16:20:36.319748"
"Guardian Plumbing","905-809-4165","","","","","","https://www.yellowpages.ca/bus/Ontario/Guardian-Plumbing/100954424.html?what=plumbing&where=Toronto+ON&useContext=true","plumbing","2022-04-05 16:20:36.319940"
"Progressive Plumbing","613-915-0728","","","","","","https://www.yellowpages.ca/bus/Ontario/Progressive-Plumbing/101149993.html?what=plumbing&where=Toronto+ON&useContext=true","plumbing","2022-04-05 16:20:36.320130"
"United Mechanical","519-743-7842","","","","","","https://www.yellowpages.ca/bus/Ontario/United-Mechanical/101059029.html?what=plumbing&where=Toronto+ON&useContext=true","plumbing","2022-04-05 16:20:36.320320"
"Affordable Plumber","519-998-7078","","","","","","https://www.yellowpages.ca/bus/Ontario/Affordable-Plumber/101091874.html?what=plumbing&where=Toronto+ON&useContext=true","plumbing","2022-04-05 16:20:36.320509"
"L&L Plumbing","647-770-7292","","","","","","https://www.yellowpages.ca/bus/Ontario/L-L-Plumbing/101099791.html?what=plumbing&where=Toronto+ON&useContext=true","plumbing","2022-04-05 16:20:36.320701"
"Tak Plumbing","647-280-6041","","","","","","https://www.yellowpages.ca/bus/Ontario/Tak-Plumbing/101093837.html?what=plumbing&where=Toronto+ON&useContext=true","plumbing","2022-04-05 16:20:36.320898"
"Pb&J Plumbing","705-761-6975","","","","","","https://www.yellowpages.ca/bus/Ontario/Pb-J-Plumbing/101128007.html?what=plumbing&where=Toronto+ON&useContext=true","plumbing","2022-04-05 16:20:36.321098"
"Cobourg Plumber","289-829-0930","","","","","","https://www.yellowpages.ca/bus/Ontario/Cobourg-Plumber/101133030.html?what=plumbing&where=Toronto+ON&useContext=true","plumbing","2022-04-05 16:20:36.321310"
"Nyarkoh Plumbing","416-731-1679","","","","","","https://www.yellowpages.ca/bus/Ontario/Nyarkoh-Plumbing/100989019.html?what=plumbing&where=Toronto+ON&useContext=true","plumbing","2022-04-05 16:20:36.321499"
"Grizzly Plumbing","705-626-8520","","","","","","https://www.yellowpages.ca/bus/Ontario/Grizzly-Plumbing/101031048.html?what=plumbing&where=Toronto+ON&useContext=true","plumbing","2022-04-05 16:20:36.321688"
"Saving Plumbing","647-932-7176","","","","","","https://www.yellowpages.ca/bus/Ontario/Saving-Plumbing/101137973.html?what=plumbing&where=Toronto+ON&useContext=true","plumbing","2022-04-05 16:20:36.321877"
"TJ Plumbing","647-710-1308","","","","","","https://www.yellowpages.ca/bus/Ontario/TJ-Plumbing/101132984.html?what=plumbing&where=Toronto+ON&useContext=true","plumbing","2022-04-05 16:20:36.322066"
"Navid Group","905-805-6200","","","","","","https://www.yellowpages.ca/bus/Ontario/Navid-Group/101133081.html?what=plumbing&where=Toronto+ON&useContext=true","plumbing","2022-04-05 16:20:36.322256"
"Public Plumbing","416-323-0242","","","","","","https://www.yellowpages.ca/bus/Ontario/Public-Plumbing/101135913.html?what=plumbing&where=Toronto+ON&useContext=true","plumbing","2022-04-05 16:20:36.322451"
"Martins Plumbing","416-880-5857","","","","","","https://www.yellowpages.ca/bus/Ontario/Martins-Plumbing/100748085.html?what=plumbing&where=Toronto+ON&useContext=true","plumbing","2022-04-05 16:20:36.322641"
"Vincenzo Plumber","416-970-5522","","","","","","https://www.yellowpages.ca/bus/Ontario/Vincenzo-Plumber/100784289.html?what=plumbing&where=Toronto+ON&useContext=true","plumbing","2022-04-05 16:20:36.322832"
"Majury Plumbing","416-990-6459","","","","","","https://www.yellowpages.ca/bus/Ontario/Majury-Plumbing/100793079.html?what=plumbing&where=Toronto+ON&useContext=true","plumbing","2022-04-05 16:20:36.323022"
"Clearbrooke Plumbing","647-223-1576","","","ON","M9W 2E9","","https://www.yellowpages.ca/bus/Ontario/Clearbrooke-Plumbing/100762058.html?what=plumbing&where=Toronto+ON&useContext=true","plumbing","2022-04-05 16:20:36.323247"
"Dave Plumbing","416-559-5639","","","","","","https://www.yellowpages.ca/bus/Ontario/Dave-Plumbing/101130149.html?what=plumbing&where=Toronto+ON&useContext=true","plumbing","2022-04-05 16:20:36.323446"
"ATG Plumbing","416-302-9417","","","","","","https://www.yellowpages.ca/bus/Ontario/ATG-Plumbing/101170677.html?what=plumbing&where=Toronto+ON&useContext=true","plumbing","2022-04-05 16:20:36.323642"
"John Plumbing","613-321-5865","","","","","","https://www.yellowpages.ca/bus/Ontario/John-Plumbing/101151522.html?what=plumbing&where=Toronto+ON&useContext=true","plumbing","2022-04-05 16:20:36.323840"
"LSB Plumbing","647-648-1444","","","","","","https://www.yellowpages.ca/bus/Ontario/LSB-Plumbing/101139345.html?what=plumbing&where=Toronto+ON&useContext=true","plumbing","2022-04-05 16:20:36.324035"
"Ropol Plumbing","519-249-1046","","","","","","https://www.yellowpages.ca/bus/Ontario/Ropol-Plumbing/101058091.html?what=plumbing&where=Toronto+ON&useContext=true","plumbing","2022-04-05 16:20:36.324227"
"F&G Plumbing","519-994-0775","","","","","","https://www.yellowpages.ca/bus/Ontario/F-G-Plumbing/101076340.html?what=plumbing&where=Toronto+ON&useContext=true","plumbing","2022-04-05 16:20:36.324426"
"247 Plumbing","226-208-1577","","","","","","https://www.yellowpages.ca/bus/Ontario/247-Plumbing/101076427.html?what=plumbing&where=Toronto+ON&useContext=true","plumbing","2022-04-05 16:20:36.324624"
"Mastro.D Plumbing","905-699-2498","","","","","","https://www.yellowpages.ca/bus/Ontario/Mastro-D-Plumbing/100875457.html?what=plumbing&where=Toronto+ON&useContext=true","plumbing","2022-04-05 16:20:36.324820"
"Hamilton Plumber","905-407-8905","","","","","","https://www.yellowpages.ca/bus/Ontario/Hamilton-Plumber/100877807.html?what=plumbing&where=Toronto+ON&useContext=true","plumbing","2022-04-05 16:20:36.325017"
"Kayhan Plumbing","647-767-5980","Hamilton Hilton Niagara","","ON","L9A 2H1","","https://www.yellowpages.ca/bus/Ontario/Kayhan-Plumbing/101834599.html?what=plumbing&where=Toronto+ON&useContext=true","plumbing","2022-04-05 16:20:36.325230"
"GNC Plumbing","416-892-6150","","","","","","https://www.yellowpages.ca/bus/Ontario/GNC-Plumbing/100407023.html?what=plumbing&where=Toronto+ON&useContext=true","plumbing","2022-04-05 16:20:36.325435"
"Dalegrove Plumbing","416-407-7281","","","","","","https://www.yellowpages.ca/bus/Ontario/Dalegrove-Plumbing/100009497.html?what=plumbing&where=Toronto+ON&useContext=true","plumbing","2022-04-05 16:20:36.325618"
